{
"type": "FeatureCollection",
"name": "data_umkm",
"crs": { "type": "name", "properties": { "name": "urn:ogc:def:crs:OGC:1.3:CRS84" } },
"features": [
{ "type": "Feature", "properties": { "fid": 1, "No.": 13, "Nib": 2403220050792, "Nama Perusahaan": "SONYA ERINAWARTI", "Tanggal Terbit Oss": "24/03/2022", "nama_proyek": "Cokelat karakter", "Uraian Skala Usaha": "Usaha Mikro", "Alamat Usaha": " Jalan Jenderal Ahmad Yani No. 55", "Kab Kota Usaha": "Kab. Bangka", "kecamatan_usaha": "Sungailiat", "kelurahan_usaha": "Parit Padang", "longitude": 106.1038870388014, "latitude": -1.8889848435379681, "Kbli": 10732, "Judul Kbli": "Industri Makanan Dari Cokelat Dan Kembang Gula dari Coklat", "Jumlah Investasi": 5000000, "TKI": 1 }, "geometry": { "type": "Point", "coordinates": [ 106.103887038801403, -1.888984843537968 ] } },
{ "type": "Feature", "properties": { "fid": 2, "No.": 46, "Nib": 302230054387, "Nama Perusahaan": "NURI HERMASARI", "Tanggal Terbit Oss": "03/02/2023", "nama_proyek": "kue basah", "Uraian Skala Usaha": "Usaha Mikro", "Alamat Usaha": "perumahan taman pesona blok U no 24", "Kab Kota Usaha": "Kab. Bangka", "kecamatan_usaha": "Sungailiat", "kelurahan_usaha": "Bukit Betung", "longitude": 106.10541776482118, "latitude": -1.8907350390680602, "Kbli": 10792, "Judul Kbli": "Industri Kue Basah", "Jumlah Investasi": 3000000, "TKI": 1 }, "geometry": { "type": "Point", "coordinates": [ 106.105417764821183, -1.89073503906806 ] } },
{ "type": "Feature", "properties": { "fid": 3, "No.": 58, "Nib": 2002230054083, "Nama Perusahaan": "REGA SETIANANDA", "Tanggal Terbit Oss": "20/02/2023", "nama_proyek": "WARKOP OiYo", "Uraian Skala Usaha": "Usaha Mikro", "Alamat Usaha": " WARKOP OiYo Jalan Jenderal Ahmad Yani No. 55a", "Kab Kota Usaha": "Kab. Bangka", "kecamatan_usaha": "Sungailiat", "kelurahan_usaha": "Sri Menanti", "longitude": 106.1039199524449, "latitude": -1.8814158, "Kbli": 56304, "Judul Kbli": "Kedai Minuman", "Jumlah Investasi": 20000000, "TKI": 1 }, "geometry": { "type": "Point", "coordinates": [ 106.103919952444897, -1.8814158 ] } },
{ "type": "Feature", "properties": { "fid": 4, "No.": 66, "Nib": 2302230018356, "Nama Perusahaan": "VERDENURUL KAMILIA", "Tanggal Terbit Oss": "23/02/2023", "nama_proyek": "LADA NYONYA", "Uraian Skala Usaha": "Usaha Mikro", "Alamat Usaha": "JL. JEND SUDIRMAN GG. MENANTI NO 244", "Kab Kota Usaha": "Kab. Bangka", "kecamatan_usaha": "Sungailiat", "kelurahan_usaha": "Parit Padang", "longitude": 106.103822, "latitude": -1.9009136, "Kbli": 47219, "Judul Kbli": "Perdagangan Eceran Hasil Pertanian Lainnya", "Jumlah Investasi": 25000000, "TKI": 1 }, "geometry": { "type": "Point", "coordinates": [ 106.103822, -1.9009136 ] } },
{ "type": "Feature", "properties": { "fid": 5, "No.": 87, "Nib": 603230047373, "Nama Perusahaan": "SELLA NOVA", "Tanggal Terbit Oss": "06/03/2023", "nama_proyek": "WARUNG MAKAN SEDERHANA", "Uraian Skala Usaha": "Usaha Mikro", "Alamat Usaha": " Jalan  a yani jalur II", "Kab Kota Usaha": "Kab. Bangka", "kecamatan_usaha": "Sungailiat", "kelurahan_usaha": "Bukit Betung", "longitude": 106.10488032150189, "latitude": -1.8875702, "Kbli": 56102, "Judul Kbli": "Rumah/Warung Makan", "Jumlah Investasi": 15000000, "TKI": 1 }, "geometry": { "type": "Point", "coordinates": [ 106.104880321501895, -1.8875702 ] } },
{ "type": "Feature", "properties": { "fid": 6, "No.": 6, "Nib": 901230016921, "Nama Perusahaan": "SARI HARTATI", "Tanggal Terbit Oss": "09/01/2023", "nama_proyek": "Quekie Bakery & Food", "Uraian Skala Usaha": "Usaha Kecil", "Alamat Usaha": "Jalan Kartini Gang Arjuna No. 10  ", "Kab Kota Usaha": "Kab. Bangka", "kecamatan_usaha": "Sungailiat", "kelurahan_usaha": "Sri Menanti", "longitude": 106.11226336092527, "latitude": -1.8615170668523882, "Kbli": 10710, "Judul Kbli": "Industri Produk Roti Dan Kue", "Jumlah Investasi": 75000000, "TKI": 2 }, "geometry": { "type": "Point", "coordinates": [ 106.112263360925269, -1.861517066852388 ] } },
{ "type": "Feature", "properties": { "fid": 7, "No.": 23, "Nib": 2501230043149, "Nama Perusahaan": "SUTARTI", "Tanggal Terbit Oss": "25/01/2023", "nama_proyek": "dagang sate", "Uraian Skala Usaha": "Usaha Mikro", "Alamat Usaha": "srimenanti", "Kab Kota Usaha": "Kab. Bangka", "kecamatan_usaha": "Sungailiat", "kelurahan_usaha": "Sri Menanti", "longitude": 106.10494102735764, "latitude": -1.8575275004909846, "Kbli": 56102, "Judul Kbli": "Rumah/Warung Makan", "Jumlah Investasi": 15000000, "TKI": 1 }, "geometry": { "type": "Point", "coordinates": [ 106.10494102735764, -1.857527500490985 ] } },
{ "type": "Feature", "properties": { "fid": 8, "No.": 31, "Nib": 2901230010487, "Nama Perusahaan": "YENTI", "Tanggal Terbit Oss": "29/01/2023", "nama_proyek": "Rumah makan", "Uraian Skala Usaha": "Usaha Mikro", "Alamat Usaha": "Jl.sripemandang tengah", "Kab Kota Usaha": "Kab. Bangka", "kecamatan_usaha": "Sungailiat", "kelurahan_usaha": "Sri Menanti", "longitude": 106.10911515803984, "latitude": -1.8604017513358542, "Kbli": 10779, "Judul Kbli": "Industri Produk Masak  Lainnya", "Jumlah Investasi": 150000000, "TKI": 4 }, "geometry": { "type": "Point", "coordinates": [ 106.109115158039842, -1.860401751335854 ] } },
{ "type": "Feature", "properties": { "fid": 9, "No.": 35, "Nib": 102230004411, "Nama Perusahaan": "GLICIRIA SUSIYANTI", "Tanggal Terbit Oss": "01/02/2023", "nama_proyek": "Dapur Rasiney", "Uraian Skala Usaha": "Usaha Mikro", "Alamat Usaha": "Jalan Kartini 1 No.16", "Kab Kota Usaha": "Kab. Bangka", "kecamatan_usaha": "Sungailiat", "kelurahan_usaha": "Sri Menanti", "longitude": 106.1025511, "latitude": -1.8545866, "Kbli": 10792, "Judul Kbli": "Industri Kue Basah", "Jumlah Investasi": 2500000, "TKI": 1 }, "geometry": { "type": "Point", "coordinates": [ 106.1025511, -1.8545866 ] } },
{ "type": "Feature", "properties": { "fid": 10, "No.": 36, "Nib": 102230004411, "Nama Perusahaan": "GLICIRIA SUSIYANTI", "Tanggal Terbit Oss": "01/02/2023", "nama_proyek": "Kue Kering", "Uraian Skala Usaha": "Usaha Mikro", "Alamat Usaha": "Jl.Kartini 1 No.16", "Kab Kota Usaha": "Kab. Bangka", "kecamatan_usaha": "Sungailiat", "kelurahan_usaha": "Sri Menanti", "longitude": 106.10360694075175, "latitude": -1.857535190475071, "Kbli": 10710, "Judul Kbli": "Industri Produk Roti Dan Kue", "Jumlah Investasi": 2500000, "TKI": 1 }, "geometry": { "type": "Point", "coordinates": [ 106.103606940751746, -1.857535190475071 ] } },
{ "type": "Feature", "properties": { "fid": 11, "No.": 37, "Nib": 102230004411, "Nama Perusahaan": "GLICIRIA SUSIYANTI", "Tanggal Terbit Oss": "01/02/2023", "nama_proyek": "Pizza", "Uraian Skala Usaha": "Usaha Mikro", "Alamat Usaha": "Jl.Kartini 1 No.16", "Kab Kota Usaha": "Kab. Bangka", "kecamatan_usaha": "Sungailiat", "kelurahan_usaha": "Sri Menanti", "longitude": 106.10294656056132, "latitude": -1.856604912367765, "Kbli": 10799, "Judul Kbli": "Industri Produk Makanan Lainnya", "Jumlah Investasi": 2500000, "TKI": 1 }, "geometry": { "type": "Point", "coordinates": [ 106.102946560561321, -1.856604912367765 ] } },
{ "type": "Feature", "properties": { "fid": 12, "No.": 40, "Nib": 102230052394, "Nama Perusahaan": "PUTRINING KURNIAWATI", "Tanggal Terbit Oss": "01/02/2023", "nama_proyek": "Pawon Snack", "Uraian Skala Usaha": "Usaha Mikro", "Alamat Usaha": "jl kartini no 57", "Kab Kota Usaha": "Kab. Bangka", "kecamatan_usaha": "Sungailiat", "kelurahan_usaha": "Sri Menanti", "longitude": 106.11148954016797, "latitude": -1.8648035882332221, "Kbli": 47249, "Judul Kbli": "Perdagangan Eceran Makanan Lainnya", "Jumlah Investasi": 3000000, "TKI": 2 }, "geometry": { "type": "Point", "coordinates": [ 106.111489540167966, -1.864803588233222 ] } },
{ "type": "Feature", "properties": { "fid": 13, "No.": 44, "Nib": 602230018482, "Nama Perusahaan": "ABIL GUSTAP PRATAMA", "Tanggal Terbit Oss": "06/02/2023", "nama_proyek": "kedai makan naura", "Uraian Skala Usaha": "Usaha Mikro", "Alamat Usaha": "jalan tanjung pesona", "Kab Kota Usaha": "Kab. Bangka", "kecamatan_usaha": "Sungailiat", "kelurahan_usaha": "Jelitik", "longitude": 106.10617139094219, "latitude": -1.8558293205042189, "Kbli": 56103, "Judul Kbli": "Kedai Makanan", "Jumlah Investasi": 10000000, "TKI": 1 }, "geometry": { "type": "Point", "coordinates": [ 106.106171390942194, -1.855829320504219 ] } },
{ "type": "Feature", "properties": { "fid": 14, "No.": 50, "Nib": 802230075318, "Nama Perusahaan": "ANNA YUSLIKHATUN NI'MAH", "Tanggal Terbit Oss": "08/02/2023", "nama_proyek": "ANNA SNACK", "Uraian Skala Usaha": "Usaha Mikro", "Alamat Usaha": " Jalan batin tikal", "Kab Kota Usaha": "Kab. Bangka", "kecamatan_usaha": "Sungailiat", "kelurahan_usaha": "Sungailiat", "longitude": 106.11002499698463, "latitude": -1.8535627654603868, "Kbli": 47249, "Judul Kbli": "Perdagangan Eceran Makanan Lainnya", "Jumlah Investasi": 20000000, "TKI": 1 }, "geometry": { "type": "Point", "coordinates": [ 106.110024996984635, -1.853562765460387 ] } },
{ "type": "Feature", "properties": { "fid": 15, "No.": 67, "Nib": 2302230018233, "Nama Perusahaan": "MELITHA RUKMANA SARI", "Tanggal Terbit Oss": "23/02/2023", "nama_proyek": "zafa's kitchen", "Uraian Skala Usaha": "Usaha Mikro", "Alamat Usaha": "Jl. Sisingamangaraja Perum. Bumi Arwana Permai Blok K97", "Kab Kota Usaha": "Kab. Bangka", "kecamatan_usaha": "Sungailiat", "kelurahan_usaha": "Kudai", "longitude": 106.0880347, "latitude": -1.8440845, "Kbli": 10710, "Judul Kbli": "Industri Produk Roti Dan Kue", "Jumlah Investasi": 5000000, "TKI": 1 }, "geometry": { "type": "Point", "coordinates": [ 106.0880347, -1.8440845 ] } },
{ "type": "Feature", "properties": { "fid": 16, "No.": 68, "Nib": 2302230025488, "Nama Perusahaan": "ERNI", "Tanggal Terbit Oss": "23/02/2023", "nama_proyek": "DAPOER ERNI ACIT", "Uraian Skala Usaha": "Usaha Mikro", "Alamat Usaha": "JL. DEPATI BARIN NO 19", "Kab Kota Usaha": "Kab. Bangka", "kecamatan_usaha": "Sungailiat", "kelurahan_usaha": "Sri Menanti", "longitude": 106.103999, "latitude": -1.8549062, "Kbli": 10710, "Judul Kbli": "Industri Produk Roti Dan Kue", "Jumlah Investasi": 5000000, "TKI": 1 }, "geometry": { "type": "Point", "coordinates": [ 106.103999, -1.8549062 ] } },
{ "type": "Feature", "properties": { "fid": 17, "No.": 69, "Nib": 2302230025488, "Nama Perusahaan": "ERNI", "Tanggal Terbit Oss": "23/02/2023", "nama_proyek": "KUE ERNI ACIT", "Uraian Skala Usaha": "Usaha Mikro", "Alamat Usaha": "JL. DEPATI BARIN NO 19", "Kab Kota Usaha": "Kab. Bangka", "kecamatan_usaha": "Sungailiat", "kelurahan_usaha": "Sri Menanti", "longitude": 106.103999, "latitude": -1.8549062, "Kbli": 10792, "Judul Kbli": "Industri Kue Basah", "Jumlah Investasi": 3000000, "TKI": 1 }, "geometry": { "type": "Point", "coordinates": [ 106.103999, -1.8549062 ] } },
{ "type": "Feature", "properties": { "fid": 18, "No.": 73, "Nib": 2408220050119, "Nama Perusahaan": "ROSMAWATI", "Tanggal Terbit Oss": "24/08/2022", "nama_proyek": "aneka macam kue dan kukis", "Uraian Skala Usaha": "Usaha Mikro", "Alamat Usaha": "Jl. Belinyu Lingkungan Sinar Baru ", "Kab Kota Usaha": "Kab. Bangka", "kecamatan_usaha": "Sungailiat", "kelurahan_usaha": "Sinar Baru", "longitude": 106.11125777473417, "latitude": -1.8429527888448329, "Kbli": 10710, "Judul Kbli": "Industri Produk Roti Dan Kue", "Jumlah Investasi": 5000000, "TKI": 1 }, "geometry": { "type": "Point", "coordinates": [ 106.11125777473417, -1.842952788844833 ] } },
{ "type": "Feature", "properties": { "fid": 19, "No.": 82, "Nib": 901230016921, "Nama Perusahaan": "SARI HARTATI", "Tanggal Terbit Oss": "09/01/2023", "nama_proyek": "Kedai Makanan", "Uraian Skala Usaha": "Usaha Kecil", "Alamat Usaha": "Jalan Kartini Gang Arjuna NO 10", "Kab Kota Usaha": "Kab. Bangka", "kecamatan_usaha": "Sungailiat", "kelurahan_usaha": "Sri Menanti", "longitude": 106.10574829256967, "latitude": -1.8551209411700962, "Kbli": 56103, "Judul Kbli": "Kedai Makanan", "Jumlah Investasi": 15000000, "TKI": 1 }, "geometry": { "type": "Point", "coordinates": [ 106.105748292569672, -1.855120941170096 ] } },
{ "type": "Feature", "properties": { "fid": 20, "No.": 93, "Nib": 1277000101714, "Nama Perusahaan": "AGUSTINA", "Tanggal Terbit Oss": "11/01/2021", "nama_proyek": "Kue Kering", "Uraian Skala Usaha": "Usaha Mikro", "Alamat Usaha": "Lingkungan Nelayan II", "Kab Kota Usaha": "Kab. Bangka", "kecamatan_usaha": "Sungailiat", "kelurahan_usaha": "Sungailiat", "longitude": 106.11297880137253, "latitude": -1.8484528517696539, "Kbli": 10710, "Judul Kbli": "Industri Produk Roti Dan Kue", "Jumlah Investasi": 2000000, "TKI": 1 }, "geometry": { "type": "Point", "coordinates": [ 106.112978801372535, -1.848452851769654 ] } },
{ "type": "Feature", "properties": { "fid": 21, "No.": 98, "Nib": 1603230058593, "Nama Perusahaan": "DESVELIANITA PRATAMI", "Tanggal Terbit Oss": "16/03/2023", "nama_proyek": "Family's Cake", "Uraian Skala Usaha": "Usaha Mikro", "Alamat Usaha": "jalan cendrawasih III No.136 RT.003", "Kab Kota Usaha": "Kab. Bangka", "kecamatan_usaha": "Sungailiat", "kelurahan_usaha": "Sri Menanti", "longitude": 106.103999, "latitude": -1.8549062, "Kbli": 56104, "Judul Kbli": "Penyediaan Makanan Keliling/Tempat Tidak Tetap", "Jumlah Investasi": 5000000, "TKI": 3 }, "geometry": { "type": "Point", "coordinates": [ 106.103999, -1.8549062 ] } },
{ "type": "Feature", "properties": { "fid": 22, "No.": 100, "Nib": 1803230029997, "Nama Perusahaan": "IWAN BUDIONO", "Tanggal Terbit Oss": "18/03/2023", "nama_proyek": "Black Forest 139", "Uraian Skala Usaha": "Usaha Mikro", "Alamat Usaha": "Jl. Muhidin No. 139", "Kab Kota Usaha": "Kab. Bangka", "kecamatan_usaha": "Sungailiat", "kelurahan_usaha": "Kudai", "longitude": 106.0821082, "latitude": -1.8472485, "Kbli": 10710, "Judul Kbli": "Industri Produk Roti Dan Kue", "Jumlah Investasi": 2000000, "TKI": 3 }, "geometry": { "type": "Point", "coordinates": [ 106.0821082, -1.8472485 ] } },
{ "type": "Feature", "properties": { "fid": 23, "No.": 101, "Nib": 1903230034114, "Nama Perusahaan": "TOMI ZUNITA", "Tanggal Terbit Oss": "19/03/2023", "nama_proyek": "roti bollen dan black forest", "Uraian Skala Usaha": "Usaha Mikro", "Alamat Usaha": "Jl. Muhidin No 139", "Kab Kota Usaha": "Kab. Bangka", "kecamatan_usaha": "Sungailiat", "kelurahan_usaha": "Kudai", "longitude": 106.0820438, "latitude": -1.8472632, "Kbli": 10710, "Judul Kbli": "Industri Produk Roti Dan Kue", "Jumlah Investasi": 10000000, "TKI": 1 }, "geometry": { "type": "Point", "coordinates": [ 106.0820438, -1.8472632 ] } },
{ "type": "Feature", "properties": { "fid": 24, "No.": 3, "Nib": 1310220153735, "Nama Perusahaan": "FII AMANILLAH SUNGAILIAT", "Tanggal Terbit Oss": "13/10/2022", "nama_proyek": "SAUNG CENDIKIA", "Uraian Skala Usaha": "Usaha Mikro", "Alamat Usaha": "GANG MENUMBING", "Kab Kota Usaha": "Kab. Bangka", "kecamatan_usaha": "Sungailiat", "kelurahan_usaha": "Parit Padang", "longitude": 106.111595, "latitude": -1.899092, "Kbli": 85132, "Judul Kbli": "Pendidikan Taman Kanak-kanak Swasta/Raudatul Athfal/Bustanul Athfal", "Jumlah Investasi": 10000000, "TKI": 2 }, "geometry": { "type": "Point", "coordinates": [ 106.111595, -1.899092 ] } },
{ "type": "Feature", "properties": { "fid": 25, "No.": 28, "Nib": 1225000132957, "Nama Perusahaan": "ELVI RONICA", "Tanggal Terbit Oss": "25/01/2021", "nama_proyek": "PEMPEK ONLINE 2020", "Uraian Skala Usaha": "Usaha Mikro", "Alamat Usaha": "JALAN JENDERAL SUDIRMAN NO 177 WAKOP TUNGHIN", "Kab Kota Usaha": "Kab. Bangka", "kecamatan_usaha": "Sungailiat", "kelurahan_usaha": "Parit Padang", "longitude": 106.11167876839616, "latitude": -1.9009781467970399, "Kbli": 56103, "Judul Kbli": "Kedai Makanan", "Jumlah Investasi": 25000000, "TKI": 2 }, "geometry": { "type": "Point", "coordinates": [ 106.11167876839616, -1.90097814679704 ] } },
{ "type": "Feature", "properties": { "fid": 26, "No.": 95, "Nib": 1403230019641, "Nama Perusahaan": "MARLINA INDAH PALUPI", "Tanggal Terbit Oss": "14/03/2023", "nama_proyek": "ANEKA PUDING", "Uraian Skala Usaha": "Usaha Mikro", "Alamat Usaha": "II JL. A YANI JALUR II PUCUK MERAH III NO 18", "Kab Kota Usaha": "Kab. Bangka", "kecamatan_usaha": "Sungailiat", "kelurahan_usaha": "Bukit Betung", "longitude": 106.0853952, "latitude": -1.9146751, "Kbli": 10792, "Judul Kbli": "Industri Kue Basah", "Jumlah Investasi": 7000000, "TKI": 1 }, "geometry": { "type": "Point", "coordinates": [ 106.0853952, -1.9146751 ] } },
{ "type": "Feature", "properties": { "fid": 27, "No.": 62, "Nib": 2202230006304, "Nama Perusahaan": "MARINA", "Tanggal Terbit Oss": "22/02/2023", "nama_proyek": "MARINA CAKE & COOKIES", "Uraian Skala Usaha": "Usaha Mikro", "Alamat Usaha": "LINK MATRAS", "Kab Kota Usaha": "Kab. Bangka", "kecamatan_usaha": "Sungailiat", "kelurahan_usaha": "Matras", "longitude": 106.11358536189746, "latitude": -1.8237156557838294, "Kbli": 10792, "Judul Kbli": "Industri Kue Basah", "Jumlah Investasi": 5000000, "TKI": 1 }, "geometry": { "type": "Point", "coordinates": [ 106.113585361897464, -1.823715655783829 ] } },
{ "type": "Feature", "properties": { "fid": 28, "No.": 63, "Nib": 2202230006304, "Nama Perusahaan": "MARINA", "Tanggal Terbit Oss": "22/02/2023", "nama_proyek": "marina cake aaa7 cookies", "Uraian Skala Usaha": "Usaha Mikro", "Alamat Usaha": "LINGK MATRAS", "Kab Kota Usaha": "Kab. Bangka", "kecamatan_usaha": "Sungailiat", "kelurahan_usaha": "Matras", "longitude": 106.1078681, "latitude": -1.8235486, "Kbli": 10710, "Judul Kbli": "Industri Produk Roti Dan Kue", "Jumlah Investasi": 3000000, "TKI": 1 }, "geometry": { "type": "Point", "coordinates": [ 106.1078681, -1.8235486 ] } },
{ "type": "Feature", "properties": { "fid": 29, "No.": 1, "Nib": 1298000210718, "Nama Perusahaan": "DAUD GORETY", "Tanggal Terbit Oss": "01/02/2021", "nama_proyek": "D'Kozi Kafe", "Uraian Skala Usaha": "Usaha Mikro", "Alamat Usaha": " Jalan Jenderal Sudirman No. 548 ", "Kab Kota Usaha": "Kab. Bangka", "kecamatan_usaha": "Sungailiat", "kelurahan_usaha": "Sri Menanti", "longitude": 106.11578426698897, "latitude": -1.8725041308966603, "Kbli": 56101, "Judul Kbli": "Restoran", "Jumlah Investasi": 200000000, "TKI": 5 }, "geometry": { "type": "Point", "coordinates": [ 106.115784266988967, -1.87250413089666 ] } },
{ "type": "Feature", "properties": { "fid": 30, "No.": 20, "Nib": 1901230064782, "Nama Perusahaan": "GALUH NUGRAHA", "Tanggal Terbit Oss": "19/01/2023", "nama_proyek": "Sugi Seafood ", "Uraian Skala Usaha": "Usaha Mikro", "Alamat Usaha": "Jl Pemuda Parit Padang", "Kab Kota Usaha": "Kab. Bangka", "kecamatan_usaha": "Sungailiat", "kelurahan_usaha": "Parit Padang", "longitude": 106.10485475840289, "latitude": -1.8727353639815003, "Kbli": 47249, "Judul Kbli": "Perdagangan Eceran Makanan Lainnya", "Jumlah Investasi": 20000000, "TKI": 1 }, "geometry": { "type": "Point", "coordinates": [ 106.104854758402894, -1.8727353639815 ] } },
{ "type": "Feature", "properties": { "fid": 31, "No.": 29, "Nib": 1225000132957, "Nama Perusahaan": "ELVI RONICA", "Tanggal Terbit Oss": "25/01/2021", "nama_proyek": "WARKOP TUNGHIN", "Uraian Skala Usaha": "Usaha Mikro", "Alamat Usaha": "JALAN JENDERAL SUDIRMAN NO 177 WARKOP TUNGHIN", "Kab Kota Usaha": "Kab. Bangka", "kecamatan_usaha": "Sungailiat", "kelurahan_usaha": "Parit Padang", "longitude": 106.1166912, "latitude": -1.8984754, "Kbli": 56304, "Judul Kbli": "Kedai Minuman", "Jumlah Investasi": 25000000, "TKI": 1 }, "geometry": { "type": "Point", "coordinates": [ 106.1166912, -1.8984754 ] } },
{ "type": "Feature", "properties": { "fid": 32, "No.": 94, "Nib": 1403230019641, "Nama Perusahaan": "MARLINA INDAH PALUPI", "Tanggal Terbit Oss": "14/03/2023", "nama_proyek": "DENA COOKIES", "Uraian Skala Usaha": "Usaha Mikro", "Alamat Usaha": "II JL. A YANI JALUR II PUCUK MERAH II NO 18", "Kab Kota Usaha": "Kab. Bangka", "kecamatan_usaha": "Sungailiat", "kelurahan_usaha": "Bukit Betung", "longitude": 106.11302382612777, "latitude": -1.888993526947496, "Kbli": 10710, "Judul Kbli": "Industri Produk Roti Dan Kue", "Jumlah Investasi": 25000000, "TKI": 1 }, "geometry": { "type": "Point", "coordinates": [ 106.113023826127773, -1.888993526947496 ] } },
{ "type": "Feature", "properties": { "fid": 33, "No.": 57, "Nib": 1702230026066, "Nama Perusahaan": "HARTATI DWI LESTARI SAFITRI", "Tanggal Terbit Oss": "17/02/2023", "nama_proyek": "IKAN ASIN", "Uraian Skala Usaha": "Usaha Mikro", "Alamat Usaha": "DUSUN REBO", "Kab Kota Usaha": "Kab. Bangka", "kecamatan_usaha": "Sungailiat", "kelurahan_usaha": "Rebo", "longitude": 106.1557938, "latitude": -1.9173491, "Kbli": 10211, "Judul Kbli": "Industri Penggaraman/Pengeringan Ikan", "Jumlah Investasi": 5000000, "TKI": 1 }, "geometry": { "type": "Point", "coordinates": [ 106.1557938, -1.9173491 ] } },
{ "type": "Feature", "properties": { "fid": 34, "No.": 61, "Nib": 2002230110072, "Nama Perusahaan": "SUMINAH", "Tanggal Terbit Oss": "20/02/2023", "nama_proyek": "KEDAI MINUMAN SUMINAH", "Uraian Skala Usaha": "Usaha Mikro", "Alamat Usaha": "JALAN PRAMUKA", "Kab Kota Usaha": "Kab. Bangka", "kecamatan_usaha": "Sungailiat", "kelurahan_usaha": "Surya Timur", "longitude": 106.11719658354571, "latitude": -1.9050112978423079, "Kbli": 56304, "Judul Kbli": "Kedai Minuman", "Jumlah Investasi": 10000000, "TKI": 1 }, "geometry": { "type": "Point", "coordinates": [ 106.117196583545706, -1.905011297842308 ] } },
{ "type": "Feature", "properties": { "fid": 35, "No.": 27, "Nib": 110220026154, "Nama Perusahaan": "ERNENY", "Tanggal Terbit Oss": "01/10/2022", "nama_proyek": "calo dan rusip", "Uraian Skala Usaha": "Usaha Mikro", "Alamat Usaha": "Lingkungan sinar baru", "Kab Kota Usaha": "Kab. Bangka", "kecamatan_usaha": "Sungailiat", "kelurahan_usaha": "Sinar Baru", "longitude": 106.0932729, "latitude": -1.8235218, "Kbli": 10215, "Judul Kbli": "Industri Peragian/Fermentasi Ikan", "Jumlah Investasi": 1000000, "TKI": 1 }, "geometry": { "type": "Point", "coordinates": [ 106.0932729, -1.8235218 ] } },
{ "type": "Feature", "properties": { "fid": 36, "No.": 60, "Nib": 2002230109609, "Nama Perusahaan": "SAIDIN", "Tanggal Terbit Oss": "20/02/2023", "nama_proyek": "WARUNG BAKSO SAIDIN", "Uraian Skala Usaha": "Usaha Mikro", "Alamat Usaha": "LINGKUNGAN SINAR BARU RT 4", "Kab Kota Usaha": "Kab. Bangka", "kecamatan_usaha": "Sungailiat", "kelurahan_usaha": "Sinar Baru", "longitude": 106.09403162689, "latitude": -1.8180654567927246, "Kbli": 56102, "Judul Kbli": "Rumah/Warung Makan", "Jumlah Investasi": 10000000, "TKI": 1 }, "geometry": { "type": "Point", "coordinates": [ 106.094031626890001, -1.818065456792725 ] } },
{ "type": "Feature", "properties": { "fid": 37, "No.": 99, "Nib": 1803230025326, "Nama Perusahaan": "ALIF JYVASKYLA FATHANAEN WAKANG", "Tanggal Terbit Oss": "18/03/2023", "nama_proyek": "Risol Teteh", "Uraian Skala Usaha": "Usaha Mikro", "Alamat Usaha": "Kelurahan Sri Menanti Jalan Merak II", "Kab Kota Usaha": "Kab. Bangka", "kecamatan_usaha": "Sungailiat", "kelurahan_usaha": "Sri Menanti", "longitude": 106.1098419, "latitude": -1.86639215, "Kbli": 10792, "Judul Kbli": "Industri Kue Basah", "Jumlah Investasi": 1500000, "TKI": 3 }, "geometry": { "type": "Point", "coordinates": [ 106.1098419, -1.86639215 ] } },
{ "type": "Feature", "properties": { "fid": 38, "No.": 4, "Nib": 9120206972436, "Nama Perusahaan": "PAUW'S", "Tanggal Terbit Oss": "23/09/2019", "nama_proyek": "pauws kopitiam", "Uraian Skala Usaha": "Usaha Mikro", "Alamat Usaha": "Jl. Martadinata No.8 Lingk. Parit Pekir ", "Kab Kota Usaha": "Kab. Bangka", "kecamatan_usaha": "Sungailiat", "kelurahan_usaha": "Sungailiat", "longitude": 106.1183174168053, "latitude": -1.8668822900252542, "Kbli": 56101, "Judul Kbli": "Restoran", "Jumlah Investasi": 100000000, "TKI": 30 }, "geometry": { "type": "Point", "coordinates": [ 106.118317416805297, -1.866882290025254 ] } },
{ "type": "Feature", "properties": { "fid": 39, "No.": 10, "Nib": 1101230030421, "Nama Perusahaan": "RINA HIDAYATI", "Tanggal Terbit Oss": "11/01/2023", "nama_proyek": "HOT CHILI BANGKA", "Uraian Skala Usaha": "Usaha Mikro", "Alamat Usaha": "JL. A. YANI GG. MERAK I", "Kab Kota Usaha": "Kab. Bangka", "kecamatan_usaha": "Sungailiat", "kelurahan_usaha": "Sri Menanti", "longitude": 106.1191993, "latitude": -1.8477275, "Kbli": 10750, "Judul Kbli": "Industri Makanan dan Masakan Olahan", "Jumlah Investasi": 15000000, "TKI": 2 }, "geometry": { "type": "Point", "coordinates": [ 106.1191993, -1.8477275 ] } },
{ "type": "Feature", "properties": { "fid": 40, "No.": 17, "Nib": 1701230053954, "Nama Perusahaan": "YENNI WORANG", "Tanggal Terbit Oss": "17/01/2023", "nama_proyek": "WARUNG MAKAN", "Uraian Skala Usaha": "Usaha Mikro", "Alamat Usaha": "JL. RAWA BANGUN", "Kab Kota Usaha": "Kab. Bangka", "kecamatan_usaha": "Sungailiat", "kelurahan_usaha": "Sungailiat", "longitude": 106.1217952, "latitude": -1.8511767, "Kbli": 56102, "Judul Kbli": "Rumah/Warung Makan", "Jumlah Investasi": 50000000, "TKI": 1 }, "geometry": { "type": "Point", "coordinates": [ 106.1217952, -1.8511767 ] } },
{ "type": "Feature", "properties": { "fid": 41, "No.": 53, "Nib": 1502230011526, "Nama Perusahaan": "HAIRUN NISA", "Tanggal Terbit Oss": "15/02/2023", "nama_proyek": "WARUNG MAKNUM", "Uraian Skala Usaha": "Usaha Mikro", "Alamat Usaha": "JL. A YANI JALUR II KOMPLEK PU", "Kab Kota Usaha": "Kab. Bangka", "kecamatan_usaha": "Sungailiat", "kelurahan_usaha": "Bukit Betung", "longitude": 106.1191993, "latitude": -1.8477275, "Kbli": 56102, "Judul Kbli": "Rumah/Warung Makan", "Jumlah Investasi": 60000000, "TKI": 1 }, "geometry": { "type": "Point", "coordinates": [ 106.1191993, -1.8477275 ] } },
{ "type": "Feature", "properties": { "fid": 42, "No.": 64, "Nib": 2302230015285, "Nama Perusahaan": "IIN ROHAENI", "Tanggal Terbit Oss": "23/02/2023", "nama_proyek": "bolu pisang", "Uraian Skala Usaha": "Usaha Mikro", "Alamat Usaha": "Jl. Imam Bonjol Gg. Muria No 16 Kompleks Pemda", "Kab Kota Usaha": "Kab. Bangka", "kecamatan_usaha": "Sungailiat", "kelurahan_usaha": "Bukit Betung", "longitude": 106.11985779372544, "latitude": -1.8612342227776086, "Kbli": 10710, "Judul Kbli": "Industri Produk Roti Dan Kue", "Jumlah Investasi": 5000000, "TKI": 1 }, "geometry": { "type": "Point", "coordinates": [ 106.119857793725444, -1.861234222777609 ] } },
{ "type": "Feature", "properties": { "fid": 43, "No.": 72, "Nib": 2502230026166, "Nama Perusahaan": "LINA", "Tanggal Terbit Oss": "25/02/2023", "nama_proyek": "Lina Cake", "Uraian Skala Usaha": "Usaha Mikro", "Alamat Usaha": "Lingkungan Sinar Baru", "Kab Kota Usaha": "Kab. Bangka", "kecamatan_usaha": "Sungailiat", "kelurahan_usaha": "Sinar Baru", "longitude": 106.1189494, "latitude": -1.8490645, "Kbli": 10710, "Judul Kbli": "Industri Produk Roti Dan Kue", "Jumlah Investasi": 5000000, "TKI": 1 }, "geometry": { "type": "Point", "coordinates": [ 106.1189494, -1.8490645 ] } },
{ "type": "Feature", "properties": { "fid": 44, "No.": 83, "Nib": 603230011189, "Nama Perusahaan": "INDAH SULISTIYAWATI", "Tanggal Terbit Oss": "06/03/2023", "nama_proyek": "Bless Semprong", "Uraian Skala Usaha": "Usaha Mikro", "Alamat Usaha": "Jl. S. Parman", "Kab Kota Usaha": "Kab. Bangka", "kecamatan_usaha": "Sungailiat", "kelurahan_usaha": "Sungailiat", "longitude": 106.1191993, "latitude": -1.8477275, "Kbli": 10710, "Judul Kbli": "Industri Produk Roti Dan Kue", "Jumlah Investasi": 5000000, "TKI": 2 }, "geometry": { "type": "Point", "coordinates": [ 106.1191993, -1.8477275 ] } },
{ "type": "Feature", "properties": { "fid": 45, "No.": 88, "Nib": 603230058419, "Nama Perusahaan": "MEILIANI", "Tanggal Terbit Oss": "06/03/2023", "nama_proyek": "KR Semprong", "Uraian Skala Usaha": "Usaha Mikro", "Alamat Usaha": "Jl. S. Parman Gg. Tenggiri", "Kab Kota Usaha": "Kab. Bangka", "kecamatan_usaha": "Sungailiat", "kelurahan_usaha": "Sungailiat", "longitude": 106.1191993, "latitude": -1.8477275, "Kbli": 10710, "Judul Kbli": "Industri Produk Roti Dan Kue", "Jumlah Investasi": 2000000, "TKI": 1 }, "geometry": { "type": "Point", "coordinates": [ 106.1191993, -1.8477275 ] } },
{ "type": "Feature", "properties": { "fid": 46, "No.": 91, "Nib": 903230012085, "Nama Perusahaan": "DAVID ARDIANTO", "Tanggal Terbit Oss": "09/03/2023", "nama_proyek": "Kedai Hana", "Uraian Skala Usaha": "Usaha Mikro", "Alamat Usaha": "Jl. Batin Tikal", "Kab Kota Usaha": "Kab. Bangka", "kecamatan_usaha": "Sungailiat", "kelurahan_usaha": "Sri Menanti", "longitude": 106.1191993, "latitude": -1.8477275, "Kbli": 56304, "Judul Kbli": "Kedai Minuman", "Jumlah Investasi": 35000000, "TKI": 1 }, "geometry": { "type": "Point", "coordinates": [ 106.1191993, -1.8477275 ] } },
{ "type": "Feature", "properties": { "fid": 47, "No.": 96, "Nib": 1403230031396, "Nama Perusahaan": "EMAWATI", "Tanggal Terbit Oss": "14/03/2023", "nama_proyek": "DAPOER WO EMA", "Uraian Skala Usaha": "Usaha Mikro", "Alamat Usaha": "Jl. Raya Belinyu Kp. Jelutung", "Kab Kota Usaha": "Kab. Bangka", "kecamatan_usaha": "Sungailiat", "kelurahan_usaha": "Sinar Jaya Jelutung", "longitude": 106.1191993, "latitude": -1.8477275, "Kbli": 10750, "Judul Kbli": "Industri Makanan dan Masakan Olahan", "Jumlah Investasi": 3000000, "TKI": 1 }, "geometry": { "type": "Point", "coordinates": [ 106.1191993, -1.8477275 ] } },
{ "type": "Feature", "properties": { "fid": 48, "No.": 97, "Nib": 1403230059432, "Nama Perusahaan": "RUSMIDA", "Tanggal Terbit Oss": "14/03/2023", "nama_proyek": "Makanan Olahan Empek-empek & Tekwan", "Uraian Skala Usaha": "Usaha Mikro", "Alamat Usaha": "Jl. Yos Sudarso", "Kab Kota Usaha": "Kab. Bangka", "kecamatan_usaha": "Sungailiat", "kelurahan_usaha": "Sungailiat", "longitude": 106.1191993, "latitude": -1.8477275, "Kbli": 10750, "Judul Kbli": "Industri Makanan dan Masakan Olahan", "Jumlah Investasi": 10000000, "TKI": 2 }, "geometry": { "type": "Point", "coordinates": [ 106.1191993, -1.8477275 ] } }
]
}
