{
"type": "FeatureCollection",
"name": "niaga",
"crs": { "type": "name", "properties": { "name": "urn:ogc:def:crs:OGC:1.3:CRS84" } },
"features": [
{ "type": "Feature", "properties": { "NAMOBJ": "Pasar Penagan", "LUAS": 0.0, "FUNGSI": 7, "FCODE": null, "REMARK": "Pusat Perdagangan Tradisional (Pasar Eceran/Grosir/Induk)", "SRS_ID": null, "LCODE": "GB0020", "METADATA": null, "FGSKOD": 7, "JNSPSR": 0, "JNSTKO": 0, "JNSKTR": 0, "PRSTRP": 0 }, "geometry": { "type": "Point", "coordinates": [ 105.810512040000049, -2.270712469999978, 0.0 ] } },
{ "type": "Feature", "properties": { "NAMOBJ": "Tempat Pelelangan Ikan Labuhairpandan", "LUAS": 0.0, "FUNGSI": 999, "FCODE": null, "REMARK": "Pusat Pelelangan Bahan Pokok Pangan", "SRS_ID": null, "LCODE": "GB0020", "METADATA": null, "FGSKOD": 999, "JNSPSR": 0, "JNSTKO": 0, "JNSKTR": 0, "PRSTRP": 0 }, "geometry": { "type": "Point", "coordinates": [ 105.797792670000035, -2.193726789999971, 0.0 ] } },
{ "type": "Feature", "properties": { "NAMOBJ": "Puncak Mall", "LUAS": 0.0, "FUNGSI": 6, "FCODE": null, "REMARK": "Pusat Perdagangan dan Niaga Kota (Mal/Toserba)", "SRS_ID": null, "LCODE": "GB0020", "METADATA": null, "FGSKOD": 6, "JNSPSR": 0, "JNSTKO": 0, "JNSKTR": 0, "PRSTRP": 0 }, "geometry": { "type": "Point", "coordinates": [ 105.773080193000055, -1.642122499999971, 21.69999999999709 ] } },
{ "type": "Feature", "properties": { "NAMOBJ": "Pasar Ikan Belinyu", "LUAS": 0.0, "FUNGSI": 7, "FCODE": null, "REMARK": "Pusat Perdagangan Tradisional (Pasar Eceran/Grosir/Induk)", "SRS_ID": null, "LCODE": "GB0020", "METADATA": null, "FGSKOD": 7, "JNSPSR": 0, "JNSTKO": 0, "JNSKTR": 0, "PRSTRP": 0 }, "geometry": { "type": "Point", "coordinates": [ 105.780639983000071, -1.640961604999973, 10.559999999997672 ] } },
{ "type": "Feature", "properties": { "NAMOBJ": "Pasar Senggol", "LUAS": 0.0, "FUNGSI": 7, "FCODE": null, "REMARK": "Pusat Perdagangan Tradisional (Pasar Eceran/Grosir/Induk)", "SRS_ID": null, "LCODE": "GB0020", "METADATA": null, "FGSKOD": 7, "JNSPSR": 0, "JNSTKO": 0, "JNSKTR": 0, "PRSTRP": 0 }, "geometry": { "type": "Point", "coordinates": [ 106.124760974000083, -1.864337577999947, 24.0 ] } },
{ "type": "Feature", "properties": { "NAMOBJ": "Bank BRI", "LUAS": 0.0, "FUNGSI": 2, "FCODE": null, "REMARK": "Kantor Bank", "SRS_ID": null, "LCODE": "GB0040", "METADATA": null, "FGSKOD": 2, "JNSPSR": 0, "JNSTKO": 0, "JNSKTR": 0, "PRSTRP": 0 }, "geometry": { "type": "Point", "coordinates": [ 106.117813129000069, -1.851994936999972, 57.037700000000768 ] } },
{ "type": "Feature", "properties": { "NAMOBJ": "Puncak Mall", "LUAS": 0.0, "FUNGSI": 6, "FCODE": null, "REMARK": "Pusat Perdagangan dan Niaga Kota (Mal/Toserba)", "SRS_ID": null, "LCODE": "GB0020", "METADATA": null, "FGSKOD": 6, "JNSPSR": 0, "JNSTKO": 0, "JNSKTR": 0, "PRSTRP": 0 }, "geometry": { "type": "Point", "coordinates": [ 106.117839826000079, -1.851560736999943, 30.037700000000768 ] } },
{ "type": "Feature", "properties": { "NAMOBJ": "Bank Sumsel Babel", "LUAS": 0.0, "FUNGSI": 2, "FCODE": null, "REMARK": "Kantor Bank", "SRS_ID": null, "LCODE": "GB0040", "METADATA": null, "FGSKOD": 2, "JNSPSR": 0, "JNSTKO": 0, "JNSKTR": 0, "PRSTRP": 0 }, "geometry": { "type": "Point", "coordinates": [ 106.117617506000045, -1.855423301999963, 31.037700000000768 ] } },
{ "type": "Feature", "properties": { "NAMOBJ": "Balai KIR", "LUAS": 0.0, "FUNGSI": 999, "FCODE": null, "REMARK": "Teater Seni/Konser/Pameran/Pertemuan", "SRS_ID": null, "LCODE": "GG0040", "METADATA": null, "FGSKOD": 999, "JNSPSR": 0, "JNSTKO": 0, "JNSKTR": 0, "PRSTRP": 0 }, "geometry": { "type": "Point", "coordinates": [ 106.135710204000077, -1.859739948999959, 11.0 ] } },
{ "type": "Feature", "properties": { "NAMOBJ": "Pasar Modern Lingkup", "LUAS": 0.0, "FUNGSI": 7, "FCODE": null, "REMARK": "Pusat Perdagangan Tradisional (Pasar Eceran/Grosir/Induk)", "SRS_ID": null, "LCODE": "GB0020", "METADATA": null, "FGSKOD": 7, "JNSPSR": 0, "JNSTKO": 0, "JNSKTR": 0, "PRSTRP": 0 }, "geometry": { "type": "Point", "coordinates": [ 106.128080677000071, -1.854105029999971, 22.0 ] } },
{ "type": "Feature", "properties": { "NAMOBJ": "Balai Adat Lingkungan Kenanga", "LUAS": 0.0, "FUNGSI": 999, "FCODE": null, "REMARK": "Teater Seni/Konser/Pameran/Pertemuan", "SRS_ID": null, "LCODE": "GG0040", "METADATA": null, "FGSKOD": 999, "JNSPSR": 0, "JNSTKO": 0, "JNSKTR": 0, "PRSTRP": 0 }, "geometry": { "type": "Point", "coordinates": [ 106.114656900000057, -1.935133793999967, 23.206099999995786 ] } },
{ "type": "Feature", "properties": { "NAMOBJ": "Bank BRI", "LUAS": 0.0, "FUNGSI": 2, "FCODE": null, "REMARK": "Kantor Bank", "SRS_ID": null, "LCODE": "GB0040", "METADATA": null, "FGSKOD": 2, "JNSPSR": 0, "JNSTKO": 0, "JNSKTR": 0, "PRSTRP": 0 }, "geometry": { "type": "Point", "coordinates": [ 106.118250725000053, -1.917863904999933, 23.206099999995786 ] } },
{ "type": "Feature", "properties": { "NAMOBJ": "Pasar Airkenanga", "LUAS": 0.0, "FUNGSI": 7, "FCODE": null, "REMARK": "Pusat Perdagangan Tradisional (Pasar Eceran/Grosir/Induk)", "SRS_ID": null, "LCODE": "GB0020", "METADATA": null, "FGSKOD": 7, "JNSPSR": 0, "JNSTKO": 0, "JNSKTR": 0, "PRSTRP": 0 }, "geometry": { "type": "Point", "coordinates": [ 106.114783830000079, -1.908892994999974, 23.206099999995786 ] } },
{ "type": "Feature", "properties": { "NAMOBJ": "Wisma Klekak Bunda", "LUAS": 0.0, "FUNGSI": 4, "FCODE": null, "REMARK": "Hotel/Motel/Hostel/Losmen", "SRS_ID": null, "LCODE": "GG0040", "METADATA": null, "FGSKOD": 4, "JNSPSR": 0, "JNSTKO": 0, "JNSKTR": 0, "PRSTRP": 0 }, "geometry": { "type": "Point", "coordinates": [ 106.119325870000068, -1.91225497399995, 27.0 ] } }
]
}
