{
"type": "FeatureCollection",
"name": "pemerintahan",
"crs": { "type": "name", "properties": { "name": "urn:ogc:def:crs:OGC:1.3:CRS84" } },
"features": [
{ "type": "Feature", "properties": { "fid": 1, "NAMOBJ": "Lapas Sungailiat", "FGSGOV": 999, "LUAS": 0.0, "FCODE": null, "REMARK": "Lembaga Pemasyarakatan", "SRS_ID": null, "LCODE": "GD0020", "METADATA": null }, "geometry": { "type": "Point", "coordinates": [ 106.10281191200005, -1.899249209999937, 42.0 ] } },
{ "type": "Feature", "properties": { "fid": 2, "NAMOBJ": "Kantor Pelayanan Teknik", "FGSGOV": 999, "LUAS": 0.0, "FCODE": null, "REMARK": "Kantor Pemerintah Lainnya", "SRS_ID": null, "LCODE": "GD0020", "METADATA": null }, "geometry": { "type": "Point", "coordinates": [ 106.106883, -1.897093757999926, 41.954700000002049 ] } },
{ "type": "Feature", "properties": { "fid": 3, "NAMOBJ": "Kantor Pertambangan Dan Energi", "FGSGOV": 999, "LUAS": 0.0, "FCODE": null, "REMARK": "Kantor Pemerintah Lainnya", "SRS_ID": null, "LCODE": "GD0020", "METADATA": null }, "geometry": { "type": "Point", "coordinates": [ 106.106450896000069, -1.896171392999975, 47.0 ] } },
{ "type": "Feature", "properties": { "fid": 4, "NAMOBJ": "Pengadilan Agama", "FGSGOV": 999, "LUAS": 0.0, "FCODE": null, "REMARK": "Kantor Pemerintah Lainnya", "SRS_ID": null, "LCODE": "GD0020", "METADATA": null }, "geometry": { "type": "Point", "coordinates": [ 106.103607071000056, -1.891433362999976, 44.0 ] } },
{ "type": "Feature", "properties": { "fid": 5, "NAMOBJ": "Badan Ketahanan Pangan", "FGSGOV": 999, "LUAS": 0.0, "FCODE": null, "REMARK": "Kantor Pemerintah Lainnya", "SRS_ID": null, "LCODE": "GD0020", "METADATA": null }, "geometry": { "type": "Point", "coordinates": [ 106.103468359000033, -1.885309627999959, 38.0 ] } },
{ "type": "Feature", "properties": { "fid": 6, "NAMOBJ": "Dinas Pertanian", "FGSGOV": 999, "LUAS": 0.0, "FCODE": null, "REMARK": "Kantor Pemerintah Lainnya", "SRS_ID": null, "LCODE": "GD0020", "METADATA": null }, "geometry": { "type": "Point", "coordinates": [ 106.102596088000041, -1.884912179999958, 41.0 ] } },
{ "type": "Feature", "properties": { "fid": 7, "NAMOBJ": "Dinas Pendidikan", "FGSGOV": 999, "LUAS": 0.0, "FCODE": null, "REMARK": "Kantor Pemerintah Lainnya", "SRS_ID": null, "LCODE": "GD0020", "METADATA": null }, "geometry": { "type": "Point", "coordinates": [ 106.105335293000053, -1.894833372999926, 44.0 ] } },
{ "type": "Feature", "properties": { "fid": 8, "NAMOBJ": "Badan Kepegawaian", "FGSGOV": 999, "LUAS": 0.0, "FCODE": null, "REMARK": "Kantor Pemerintah Lainnya", "SRS_ID": null, "LCODE": "GD0020", "METADATA": null }, "geometry": { "type": "Point", "coordinates": [ 106.103642711000077, -1.89092678999998, 43.0 ] } },
{ "type": "Feature", "properties": { "fid": 9, "NAMOBJ": "Kantor Bupati Bangka", "FGSGOV": 8, "LUAS": 0.0, "FCODE": null, "REMARK": "Kantor Bupati", "SRS_ID": null, "LCODE": "GD0020", "METADATA": null }, "geometry": { "type": "Point", "coordinates": [ 106.104090111000062, -1.887606794999954, 35.0 ] } },
{ "type": "Feature", "properties": { "fid": 10, "NAMOBJ": "Pengadilan Negeri", "FGSGOV": 999, "LUAS": 0.0, "FCODE": null, "REMARK": "Kantor Pemerintah Lainnya", "SRS_ID": null, "LCODE": "GD0020", "METADATA": null }, "geometry": { "type": "Point", "coordinates": [ 106.109464395000089, -1.884953018999965, 34.148100000005797 ] } },
{ "type": "Feature", "properties": { "fid": 11, "NAMOBJ": "DPU", "FGSGOV": 999, "LUAS": 0.0, "FCODE": null, "REMARK": "Kantor Pemerintah Lainnya", "SRS_ID": null, "LCODE": "GD0020", "METADATA": null }, "geometry": { "type": "Point", "coordinates": [ 106.10273124400004, -1.885400552999954, 39.0 ] } },
{ "type": "Feature", "properties": { "fid": 12, "NAMOBJ": "Kantor Lurah Paritpadang", "FGSGOV": 10, "LUAS": 0.0, "FCODE": null, "REMARK": "Kantor Lurah", "SRS_ID": null, "LCODE": "GD0020", "METADATA": null }, "geometry": { "type": "Point", "coordinates": [ 106.106045734000077, -1.895203782999943, 49.0 ] } },
{ "type": "Feature", "properties": { "fid": 13, "NAMOBJ": "Dinas Kesehatan", "FGSGOV": 999, "LUAS": 0.0, "FCODE": null, "REMARK": "Kantor Pemerintah Lainnya", "SRS_ID": null, "LCODE": "GD0020", "METADATA": null }, "geometry": { "type": "Point", "coordinates": [ 106.104264486000034, -1.893251092999947, 41.0 ] } },
{ "type": "Feature", "properties": { "fid": 14, "NAMOBJ": "DPRD Bangka", "FGSGOV": 6, "LUAS": 0.0, "FCODE": null, "REMARK": "Kantor DPRD", "SRS_ID": null, "LCODE": "GD0020", "METADATA": null }, "geometry": { "type": "Point", "coordinates": [ 106.103965006000067, -1.888800884999966, 37.0 ] } },
{ "type": "Feature", "properties": { "fid": 15, "NAMOBJ": "Kantor Samsat", "FGSGOV": 16, "LUAS": 0.0, "FCODE": null, "REMARK": "Kantor Polisi", "SRS_ID": null, "LCODE": "GK0020", "METADATA": null }, "geometry": { "type": "Point", "coordinates": [ 106.109663445000081, -1.901090081999939, 41.0 ] } },
{ "type": "Feature", "properties": { "fid": 16, "NAMOBJ": "Dinas PUM Bengkel dan Laboratorium", "FGSGOV": 999, "LUAS": 0.0, "FCODE": null, "REMARK": "Kantor Pemerintah Lainnya", "SRS_ID": null, "LCODE": "GD0020", "METADATA": null }, "geometry": { "type": "Point", "coordinates": [ 106.114536118000046, -1.941882015999965, 23.206099999995786 ] } },
{ "type": "Feature", "properties": { "fid": 17, "NAMOBJ": "Kantor Lurah Kenanga", "FGSGOV": 10, "LUAS": 0.0, "FCODE": null, "REMARK": "Kantor Lurah", "SRS_ID": null, "LCODE": "GD0020", "METADATA": null }, "geometry": { "type": "Point", "coordinates": [ 106.115060877000076, -1.934391636999976, 23.206099999995786 ] } },
{ "type": "Feature", "properties": { "fid": 18, "NAMOBJ": "Kantor Desa Rebo", "FGSGOV": 10, "LUAS": 0.0, "FCODE": null, "REMARK": "Kantor Kepala Desa", "SRS_ID": null, "LCODE": "GD0020", "METADATA": null }, "geometry": { "type": "Point", "coordinates": [ 106.133366848000037, -1.923841951999975, 38.0 ] } },
{ "type": "Feature", "properties": { "fid": 19, "NAMOBJ": "Kantor BPD Desa Rebo", "FGSGOV": 999, "LUAS": 0.0, "FCODE": null, "REMARK": "Kantor Pemerintah Lainnya", "SRS_ID": null, "LCODE": "GD0020", "METADATA": null }, "geometry": { "type": "Point", "coordinates": [ 106.131873165000059, -1.92180772599994, 33.0 ] } },
{ "type": "Feature", "properties": { "fid": 20, "NAMOBJ": "Kantor Lurah Srimenanti", "FGSGOV": 10, "LUAS": 0.0, "FCODE": null, "REMARK": "Kantor Lurah", "SRS_ID": null, "LCODE": "GD0020", "METADATA": null }, "geometry": { "type": "Point", "coordinates": [ 106.111034450000034, -1.865666989999966, 27.0 ] } },
{ "type": "Feature", "properties": { "fid": 21, "NAMOBJ": "Kantor Lurah Kuday", "FGSGOV": 10, "LUAS": 0.0, "FCODE": null, "REMARK": "Kantor Lurah", "SRS_ID": null, "LCODE": "GD0020", "METADATA": null }, "geometry": { "type": "Point", "coordinates": [ 106.109261573000083, -1.848219316999973, 16.0 ] } },
{ "type": "Feature", "properties": { "fid": 22, "NAMOBJ": "Markas Brimob Polda Babel", "FGSGOV": 20, "LUAS": 0.0, "FCODE": null, "REMARK": "Bangunan/Kantor Pertahanan Keamanan Lainnya", "SRS_ID": null, "LCODE": "GK0020", "METADATA": null }, "geometry": { "type": "Point", "coordinates": [ 106.101551657000073, -1.809337362999941, 39.169999999998254 ] } },
{ "type": "Feature", "properties": { "fid": 23, "NAMOBJ": "Kejaksaan Negeri", "FGSGOV": 999, "LUAS": 0.0, "FCODE": null, "REMARK": "Kantor Pemerintah Lainnya", "SRS_ID": null, "LCODE": "GD0020", "METADATA": null }, "geometry": { "type": "Point", "coordinates": [ 106.113096536000057, -1.88531250799997, 32.0 ] } },
{ "type": "Feature", "properties": { "fid": 24, "NAMOBJ": "Pos Pelayanan Perikanan Desa Rebo", "FGSGOV": 999, "LUAS": 0.0, "FCODE": null, "REMARK": "Kantor Pemerintah Lainnya", "SRS_ID": null, "LCODE": "GD0020", "METADATA": null }, "geometry": { "type": "Point", "coordinates": [ 106.172577674000081, -1.918930828999976, 10.0 ] } },
{ "type": "Feature", "properties": { "fid": 25, "NAMOBJ": "Kantor Lurah Sinarbaru", "FGSGOV": 10, "LUAS": 0.0, "FCODE": null, "REMARK": "Kantor Lurah", "SRS_ID": null, "LCODE": "GD0020", "METADATA": null }, "geometry": { "type": "Point", "coordinates": [ 106.097648718000073, -1.836575904999961, 9.0 ] } },
{ "type": "Feature", "properties": { "fid": 26, "NAMOBJ": "Kantor Camat Sungailiat", "FGSGOV": 9, "LUAS": 0.0, "FCODE": null, "REMARK": "Kantor Camat", "SRS_ID": null, "LCODE": "GD0020", "METADATA": null }, "geometry": { "type": "Point", "coordinates": [ 106.109516584000062, -1.867911240999945, 29.0 ] } },
{ "type": "Feature", "properties": { "fid": 27, "NAMOBJ": "Polsek", "FGSGOV": 16, "LUAS": 0.0, "FCODE": null, "REMARK": "Kantor Polisi", "SRS_ID": null, "LCODE": "GK0020", "METADATA": null }, "geometry": { "type": "Point", "coordinates": [ 106.115136697000082, -1.855985697999927, 37.037700000000768 ] } },
{ "type": "Feature", "properties": { "fid": 28, "NAMOBJ": "Kantor Lurah Sungailiat", "FGSGOV": 10, "LUAS": 0.0, "FCODE": null, "REMARK": "Kantor Lurah", "SRS_ID": null, "LCODE": "GD0020", "METADATA": null }, "geometry": { "type": "Point", "coordinates": [ 106.115612160000069, -1.854402433999951, 37.037700000000768 ] } },
{ "type": "Feature", "properties": { "fid": 29, "NAMOBJ": "Kantor Pelabuhan", "FGSGOV": 999, "LUAS": 0.0, "FCODE": null, "REMARK": "Kantor Pemerintah Lainnya", "SRS_ID": null, "LCODE": "GD0020", "METADATA": null }, "geometry": { "type": "Point", "coordinates": [ 106.124383474000069, -1.864446365999925, 26.0 ] } }
]
}
