{
"type": "FeatureCollection",
"name": "Sekolah",
"crs": { "type": "name", "properties": { "name": "urn:ogc:def:crs:OGC:1.3:CRS84" } },
"features": [
{ "type": "Feature", "properties": { "fid": 1, "NAMOBJ": "SDN 25 Sungailiat", "LUAS": 0.0, "KATPDK": 0, "JLPDDK": 0, "FGGPDK": 4, "REMARK": "Pendidikan Dasar", "FCODE": null, "SRS_ID": null, "LCODE": "GE0020", "METADATA": null, "JJGPDF": 1, "JNSPDL": 0 }, "geometry": { "type": "Point", "coordinates": [ 106.101235399000075, -1.879793272999962, 47.0 ] } },
{ "type": "Feature", "properties": { "fid": 2, "NAMOBJ": "AKBID", "LUAS": 0.0, "KATPDK": 0, "JLPDDK": 0, "FGGPDK": 1, "REMARK": "Pendidikan Tinggi", "FCODE": null, "SRS_ID": null, "LCODE": "GE0020", "METADATA": null, "JJGPDF": 3, "JNSPDL": 0 }, "geometry": { "type": "Point", "coordinates": [ 106.099410419000037, -1.879740155999968, 52.0 ] } },
{ "type": "Feature", "properties": { "fid": 3, "NAMOBJ": "STIKES", "LUAS": 0.0, "KATPDK": 0, "JLPDDK": 0, "FGGPDK": 1, "REMARK": "Pendidikan Tinggi", "FCODE": null, "SRS_ID": null, "LCODE": "GE0020", "METADATA": null, "JJGPDF": 3, "JNSPDL": 0 }, "geometry": { "type": "Point", "coordinates": [ 106.104958684000053, -1.896362307999937, 45.0 ] } },
{ "type": "Feature", "properties": { "fid": 4, "NAMOBJ": "SDN 15 Sungailiat", "LUAS": 0.0, "KATPDK": 0, "JLPDDK": 0, "FGGPDK": 4, "REMARK": "Pendidikan Dasar", "FCODE": null, "SRS_ID": null, "LCODE": "GE0020", "METADATA": null, "JJGPDF": 1, "JNSPDL": 0 }, "geometry": { "type": "Point", "coordinates": [ 106.107618658000035, -1.894705267999939, 41.0 ] } },
{ "type": "Feature", "properties": { "fid": 5, "NAMOBJ": "SMKN 1 Sungailiat", "LUAS": 0.0, "KATPDK": 0, "JLPDDK": 0, "FGGPDK": 2, "REMARK": "Pendidikan Menengah Umum", "FCODE": null, "SRS_ID": null, "LCODE": "GE0020", "METADATA": null, "JJGPDF": 2, "JNSPDL": 0 }, "geometry": { "type": "Point", "coordinates": [ 106.108394519000058, -1.884827067999936, 37.148100000005797 ] } },
{ "type": "Feature", "properties": { "fid": 6, "NAMOBJ": "SDN 26 Sungailiat", "LUAS": 0.0, "KATPDK": 0, "JLPDDK": 0, "FGGPDK": 4, "REMARK": "Pendidikan Dasar", "FCODE": null, "SRS_ID": null, "LCODE": "GE0020", "METADATA": null, "JJGPDF": 1, "JNSPDL": 0 }, "geometry": { "type": "Point", "coordinates": [ 106.110873149000042, -1.880755, 27.0 ] } },
{ "type": "Feature", "properties": { "fid": 7, "NAMOBJ": "SLBN", "LUAS": 0.0, "KATPDK": 0, "JLPDDK": 0, "FGGPDK": 999, "REMARK": "Pendidikan Khusus", "FCODE": null, "SRS_ID": null, "LCODE": "GE0020", "METADATA": null, "JJGPDF": 999, "JNSPDL": 0 }, "geometry": { "type": "Point", "coordinates": [ 106.10919477300007, -1.885070783999936, 35.148100000005797 ] } },
{ "type": "Feature", "properties": { "fid": 8, "NAMOBJ": "SMPN 2 Sungailiat", "LUAS": 0.0, "KATPDK": 0, "JLPDDK": 0, "FGGPDK": 3, "REMARK": "Pendidikan Menengah Pertama", "FCODE": null, "SRS_ID": null, "LCODE": "GE0020", "METADATA": null, "JJGPDF": 2, "JNSPDL": 0 }, "geometry": { "type": "Point", "coordinates": [ 106.107504457000061, -1.884728136999968, 37.148100000005797 ] } },
{ "type": "Feature", "properties": { "fid": 9, "NAMOBJ": "STISIPOL", "LUAS": 0.0, "KATPDK": 0, "JLPDDK": 0, "FGGPDK": 1, "REMARK": "Pendidikan Tinggi", "FCODE": null, "SRS_ID": null, "LCODE": "GE0020", "METADATA": null, "JJGPDF": 3, "JNSPDL": 0 }, "geometry": { "type": "Point", "coordinates": [ 106.101282902000037, -1.883863733999931, 47.0 ] } },
{ "type": "Feature", "properties": { "fid": 10, "NAMOBJ": "TK Al Misbah", "LUAS": 0.0, "KATPDK": 0, "JLPDDK": 0, "FGGPDK": 6, "REMARK": "Pendidikan Anak Usia Dini", "FCODE": null, "SRS_ID": null, "LCODE": "GE0020", "METADATA": null, "JJGPDF": 999, "JNSPDL": 0 }, "geometry": { "type": "Point", "coordinates": [ 106.103637163000087, -1.882125493999979, 51.0 ] } },
{ "type": "Feature", "properties": { "fid": 11, "NAMOBJ": "SMK El Jhon", "LUAS": 0.0, "KATPDK": 0, "JLPDDK": 0, "FGGPDK": 2, "REMARK": "Pendidikan Menengah Umum", "FCODE": null, "SRS_ID": null, "LCODE": "GE0020", "METADATA": null, "JJGPDF": 2, "JNSPDL": 0 }, "geometry": { "type": "Point", "coordinates": [ 106.109191217000046, -1.879444476999936, 33.0 ] } },
{ "type": "Feature", "properties": { "fid": 12, "NAMOBJ": "SDN 27 Jeliti Sungailiat", "LUAS": 0.0, "KATPDK": 0, "JLPDDK": 0, "FGGPDK": 4, "REMARK": "Pendidikan Dasar", "FCODE": null, "SRS_ID": null, "LCODE": "GE0020", "METADATA": null, "JJGPDF": 1, "JNSPDL": 0 }, "geometry": { "type": "Point", "coordinates": [ 106.131726599000046, -1.876164527999947, 32.0 ] } },
{ "type": "Feature", "properties": { "fid": 13, "NAMOBJ": "Pondok Tahfiz Quran", "LUAS": 0.0, "KATPDK": 0, "JLPDDK": 0, "FGGPDK": 10, "REMARK": "Pendidikan Keagamaan", "FCODE": null, "SRS_ID": null, "LCODE": "GE0020", "METADATA": null, "JJGPDF": 999, "JNSPDL": 0 }, "geometry": { "type": "Point", "coordinates": [ 106.147246278000068, -1.895041139999933, 45.0 ] } },
{ "type": "Feature", "properties": { "fid": 14, "NAMOBJ": "SMPN 6 Sungailiat", "LUAS": 0.0, "KATPDK": 0, "JLPDDK": 0, "FGGPDK": 3, "REMARK": "Pendidikan Menengah Pertama", "FCODE": null, "SRS_ID": null, "LCODE": "GE0020", "METADATA": null, "JJGPDF": 2, "JNSPDL": 0 }, "geometry": { "type": "Point", "coordinates": [ 106.145960280000054, -1.880623632999971, 26.573600000003353 ] } },
{ "type": "Feature", "properties": { "fid": 15, "NAMOBJ": "SDN 4 Sungailiat", "LUAS": 0.0, "KATPDK": 0, "JLPDDK": 0, "FGGPDK": 4, "REMARK": "Pendidikan Dasar", "FCODE": null, "SRS_ID": null, "LCODE": "GE0020", "METADATA": null, "JJGPDF": 1, "JNSPDL": 0 }, "geometry": { "type": "Point", "coordinates": [ 106.153293656000073, -1.877190576999965, 25.0 ] } },
{ "type": "Feature", "properties": { "fid": 16, "NAMOBJ": "SDN 31 Sungailiat Telukuber", "LUAS": 0.0, "KATPDK": 0, "JLPDDK": 0, "FGGPDK": 4, "REMARK": "Pendidikan Dasar", "FCODE": null, "SRS_ID": null, "LCODE": "GE0020", "METADATA": null, "JJGPDF": 1, "JNSPDL": 0 }, "geometry": { "type": "Point", "coordinates": [ 106.168211763000045, -1.883530432999976, 35.0 ] } },
{ "type": "Feature", "properties": { "fid": 17, "NAMOBJ": "SDN 16 Sungailiat", "LUAS": 0.0, "KATPDK": 0, "JLPDDK": 0, "FGGPDK": 4, "REMARK": "Pendidikan Dasar", "FCODE": null, "SRS_ID": null, "LCODE": "GE0020", "METADATA": null, "JJGPDF": 1, "JNSPDL": 0 }, "geometry": { "type": "Point", "coordinates": [ 106.115354750000051, -1.931000057999938, 23.206099999995786 ] } },
{ "type": "Feature", "properties": { "fid": 18, "NAMOBJ": "Sekolah YPK Baru Kenanga", "LUAS": 0.0, "KATPDK": 0, "JLPDDK": 0, "FGGPDK": 3, "REMARK": "Pendidikan Menengah Pertama", "FCODE": null, "SRS_ID": null, "LCODE": "GE0020", "METADATA": null, "JJGPDF": 2, "JNSPDL": 0 }, "geometry": { "type": "Point", "coordinates": [ 106.114073590000032, -1.908866329999967, 23.206099999995786 ] } },
{ "type": "Feature", "properties": { "fid": 19, "NAMOBJ": "SDN 24 Sungailiat", "LUAS": 0.0, "KATPDK": 0, "JLPDDK": 0, "FGGPDK": 4, "REMARK": "Pendidikan Dasar", "FCODE": null, "SRS_ID": null, "LCODE": "GE0020", "METADATA": null, "JJGPDF": 1, "JNSPDL": 0 }, "geometry": { "type": "Point", "coordinates": [ 106.121019239000077, -1.917183853999973, 23.206099999995786 ] } },
{ "type": "Feature", "properties": { "fid": 20, "NAMOBJ": "SMPN 4 Sungailiat", "LUAS": 0.0, "KATPDK": 0, "JLPDDK": 0, "FGGPDK": 3, "REMARK": "Pendidikan Menengah Pertama", "FCODE": null, "SRS_ID": null, "LCODE": "GE0020", "METADATA": null, "JJGPDF": 2, "JNSPDL": 0 }, "geometry": { "type": "Point", "coordinates": [ 106.117809996000062, -1.918081085999972, 23.206099999995786 ] } },
{ "type": "Feature", "properties": { "fid": 21, "NAMOBJ": "SDN 18 Sungailiat", "LUAS": 0.0, "KATPDK": 0, "JLPDDK": 0, "FGGPDK": 4, "REMARK": "Pendidikan Dasar", "FCODE": null, "SRS_ID": null, "LCODE": "GE0020", "METADATA": null, "JJGPDF": 1, "JNSPDL": 0 }, "geometry": { "type": "Point", "coordinates": [ 106.113221573000033, -1.841052784999931, 21.919999999998254 ] } },
{ "type": "Feature", "properties": { "fid": 22, "NAMOBJ": "TK SD Gajah Mada", "LUAS": 0.0, "KATPDK": 0, "JLPDDK": 0, "FGGPDK": 6, "REMARK": "Pendidikan Anak Usia Dini", "FCODE": null, "SRS_ID": null, "LCODE": "GE0020", "METADATA": null, "JJGPDF": 999, "JNSPDL": 0 }, "geometry": { "type": "Point", "coordinates": [ 106.088387025000088, -1.847581028999969, 14.309999999997672 ] } },
{ "type": "Feature", "properties": { "fid": 23, "NAMOBJ": "SD Budi Utomo", "LUAS": 0.0, "KATPDK": 0, "JLPDDK": 0, "FGGPDK": 4, "REMARK": "Pendidikan Dasar", "FCODE": null, "SRS_ID": null, "LCODE": "GE0020", "METADATA": null, "JJGPDF": 1, "JNSPDL": 0 }, "geometry": { "type": "Point", "coordinates": [ 106.093829781000068, -1.854036196999971, 12.309999999997672 ] } },
{ "type": "Feature", "properties": { "fid": 24, "NAMOBJ": "SDN 5 Sungailiat", "LUAS": 0.0, "KATPDK": 0, "JLPDDK": 0, "FGGPDK": 4, "REMARK": "Pendidikan Dasar", "FCODE": null, "SRS_ID": null, "LCODE": "GE0020", "METADATA": null, "JJGPDF": 1, "JNSPDL": 0 }, "geometry": { "type": "Point", "coordinates": [ 106.105630079000036, -1.848782417999928, 6.0 ] } },
{ "type": "Feature", "properties": { "fid": 25, "NAMOBJ": "SDN 11 Sungailiat", "LUAS": 0.0, "KATPDK": 0, "JLPDDK": 0, "FGGPDK": 4, "REMARK": "Pendidikan Dasar", "FCODE": null, "SRS_ID": null, "LCODE": "GE0020", "METADATA": null, "JJGPDF": 1, "JNSPDL": 0 }, "geometry": { "type": "Point", "coordinates": [ 106.105691110000066, -1.903028386999949, 34.0 ] } },
{ "type": "Feature", "properties": { "fid": 26, "NAMOBJ": "SDN 20 Sungailiat", "LUAS": 0.0, "KATPDK": 0, "JLPDDK": 0, "FGGPDK": 4, "REMARK": "Pendidikan Dasar", "FCODE": null, "SRS_ID": null, "LCODE": "GE0020", "METADATA": null, "JJGPDF": 1, "JNSPDL": 0 }, "geometry": { "type": "Point", "coordinates": [ 106.110770540000033, -1.816929939999966, 40.990000000005239 ] } },
{ "type": "Feature", "properties": { "fid": 27, "NAMOBJ": "SDN 21 Sungailiat", "LUAS": 0.0, "KATPDK": 0, "JLPDDK": 0, "FGGPDK": 4, "REMARK": "Pendidikan Dasar", "FCODE": null, "SRS_ID": null, "LCODE": "GE0020", "METADATA": null, "JJGPDF": 1, "JNSPDL": 0 }, "geometry": { "type": "Point", "coordinates": [ 106.117971123000075, -1.888565739999933, 30.0 ] } },
{ "type": "Feature", "properties": { "fid": 28, "NAMOBJ": "SMPN 5 Sungailiat", "LUAS": 0.0, "KATPDK": 0, "JLPDDK": 0, "FGGPDK": 3, "REMARK": "Pendidikan Menengah Pertama", "FCODE": null, "SRS_ID": null, "LCODE": "GE0020", "METADATA": null, "JJGPDF": 2, "JNSPDL": 0 }, "geometry": { "type": "Point", "coordinates": [ 106.115256560000034, -1.875017344999947, 31.0 ] } },
{ "type": "Feature", "properties": { "fid": 29, "NAMOBJ": "SDN 23 Desa Rebo", "LUAS": 0.0, "KATPDK": 0, "JLPDDK": 0, "FGGPDK": 4, "REMARK": "Pendidikan Dasar", "FCODE": null, "SRS_ID": null, "LCODE": "GE0020", "METADATA": null, "JJGPDF": 1, "JNSPDL": 0 }, "geometry": { "type": "Point", "coordinates": [ 106.141380634000086, -1.929390457999943, 17.0 ] } },
{ "type": "Feature", "properties": { "fid": 30, "NAMOBJ": "SDN 17 Sungailiat", "LUAS": 0.0, "KATPDK": 0, "JLPDDK": 0, "FGGPDK": 4, "REMARK": "Pendidikan Dasar", "FCODE": null, "SRS_ID": null, "LCODE": "GE0020", "METADATA": null, "JJGPDF": 1, "JNSPDL": 0 }, "geometry": { "type": "Point", "coordinates": [ 106.144725510000058, -1.956967607999957, 27.0 ] } },
{ "type": "Feature", "properties": { "fid": 31, "NAMOBJ": "SDN 19 Sungailiat", "LUAS": 0.0, "KATPDK": 0, "JLPDDK": 0, "FGGPDK": 4, "REMARK": "Pendidikan Dasar", "FCODE": null, "SRS_ID": null, "LCODE": "GE0020", "METADATA": null, "JJGPDF": 1, "JNSPDL": 0 }, "geometry": { "type": "Point", "coordinates": [ 106.072905228000081, -1.815017198999954, 42.0 ] } },
{ "type": "Feature", "properties": { "fid": 32, "NAMOBJ": "Islamic Center", "LUAS": 0.0, "KATPDK": 0, "JLPDDK": 0, "FGGPDK": 10, "REMARK": "Pendidikan Keagamaan", "FCODE": null, "SRS_ID": null, "LCODE": "GE0020", "METADATA": null, "JJGPDF": 999, "JNSPDL": 0 }, "geometry": { "type": "Point", "coordinates": [ 106.096004655000058, -1.823497042999975, 24.169999999998254 ] } },
{ "type": "Feature", "properties": { "fid": 33, "NAMOBJ": "SMKN 2 Sungailiat", "LUAS": 0.0, "KATPDK": 0, "JLPDDK": 0, "FGGPDK": 2, "REMARK": "Pendidikan Menengah Umum", "FCODE": null, "SRS_ID": null, "LCODE": "GE0020", "METADATA": null, "JJGPDF": 2, "JNSPDL": 0 }, "geometry": { "type": "Point", "coordinates": [ 106.089131973000065, -1.830773884999928, 40.0 ] } },
{ "type": "Feature", "properties": { "fid": 34, "NAMOBJ": "SMPN 3 Sungailiat", "LUAS": 0.0, "KATPDK": 0, "JLPDDK": 0, "FGGPDK": 3, "REMARK": "Pendidikan Menengah Pertama", "FCODE": null, "SRS_ID": null, "LCODE": "GE0020", "METADATA": null, "JJGPDF": 2, "JNSPDL": 0 }, "geometry": { "type": "Point", "coordinates": [ 106.09261226700005, -1.83290650899994, 41.94999999999709 ] } },
{ "type": "Feature", "properties": { "fid": 35, "NAMOBJ": "SDN 7 Sungailiat", "LUAS": 0.0, "KATPDK": 0, "JLPDDK": 0, "FGGPDK": 4, "REMARK": "Pendidikan Dasar", "FCODE": null, "SRS_ID": null, "LCODE": "GE0020", "METADATA": null, "JJGPDF": 1, "JNSPDL": 0 }, "geometry": { "type": "Point", "coordinates": [ 106.096757527000079, -1.83458643299997, 23.0 ] } },
{ "type": "Feature", "properties": { "fid": 36, "NAMOBJ": "PAUD At Taubah", "LUAS": 0.0, "KATPDK": 0, "JLPDDK": 0, "FGGPDK": 6, "REMARK": "Pendidikan Anak Usia Dini", "FCODE": null, "SRS_ID": null, "LCODE": "GE0020", "METADATA": null, "JJGPDF": 999, "JNSPDL": 0 }, "geometry": { "type": "Point", "coordinates": [ 106.097621887000059, -1.836802059999968, 19.0 ] } },
{ "type": "Feature", "properties": { "fid": 37, "NAMOBJ": "SDN 12 Sungailiat", "LUAS": 0.0, "KATPDK": 0, "JLPDDK": 0, "FGGPDK": 4, "REMARK": "Pendidikan Dasar", "FCODE": null, "SRS_ID": null, "LCODE": "GE0020", "METADATA": null, "JJGPDF": 1, "JNSPDL": 0 }, "geometry": { "type": "Point", "coordinates": [ 106.108402671000078, -1.869223547999979, 30.0 ] } },
{ "type": "Feature", "properties": { "fid": 38, "NAMOBJ": "SMA Muhammadiyah", "LUAS": 0.0, "KATPDK": 0, "JLPDDK": 0, "FGGPDK": 2, "REMARK": "Pendidikan Menengah Umum", "FCODE": null, "SRS_ID": null, "LCODE": "GE0020", "METADATA": null, "JJGPDF": 2, "JNSPDL": 0 }, "geometry": { "type": "Point", "coordinates": [ 106.110452460000033, -1.869403154999929, 37.037700000000768 ] } },
{ "type": "Feature", "properties": { "fid": 39, "NAMOBJ": "SD SMP Setia Budi", "LUAS": 0.0, "KATPDK": 0, "JLPDDK": 0, "FGGPDK": 3, "REMARK": "Pendidikan Menengah Pertama", "FCODE": null, "SRS_ID": null, "LCODE": "GE0020", "METADATA": null, "JJGPDF": 2, "JNSPDL": 0 }, "geometry": { "type": "Point", "coordinates": [ 106.117108919000088, -1.86151123999997, 53.037700000000768 ] } },
{ "type": "Feature", "properties": { "fid": 40, "NAMOBJ": "Madrasah Diniyah Tarbiyatul Hidayah", "LUAS": 0.0, "KATPDK": 0, "JLPDDK": 0, "FGGPDK": 6, "REMARK": "Pendidikan Anak Usia Dini", "FCODE": null, "SRS_ID": null, "LCODE": "GE0020", "METADATA": null, "JJGPDF": 999, "JNSPDL": 0 }, "geometry": { "type": "Point", "coordinates": [ 106.116024379000066, -1.852312663999953, 59.037700000000768 ] } },
{ "type": "Feature", "properties": { "fid": 41, "NAMOBJ": "SD Muhammadiyah Sungailiat", "LUAS": 0.0, "KATPDK": 0, "JLPDDK": 0, "FGGPDK": 4, "REMARK": "Pendidikan Dasar", "FCODE": null, "SRS_ID": null, "LCODE": "GE0020", "METADATA": null, "JJGPDF": 1, "JNSPDL": 0 }, "geometry": { "type": "Point", "coordinates": [ 106.116142446000083, -1.854230233999942, 34.037700000000768 ] } },
{ "type": "Feature", "properties": { "fid": 42, "NAMOBJ": "SDN 12 Sungailiat", "LUAS": 0.0, "KATPDK": 0, "JLPDDK": 0, "FGGPDK": 4, "REMARK": "Pendidikan Dasar", "FCODE": null, "SRS_ID": null, "LCODE": "GE0020", "METADATA": null, "JJGPDF": 1, "JNSPDL": 0 }, "geometry": { "type": "Point", "coordinates": [ 106.117387105000034, -1.860724104999974, 24.037700000000768 ] } },
{ "type": "Feature", "properties": { "fid": 43, "NAMOBJ": "SDN 4 Sungailiat", "LUAS": 0.0, "KATPDK": 0, "JLPDDK": 0, "FGGPDK": 4, "REMARK": "Pendidikan Dasar", "FCODE": null, "SRS_ID": null, "LCODE": "GE0020", "METADATA": null, "JJGPDF": 1, "JNSPDL": 0 }, "geometry": { "type": "Point", "coordinates": [ 106.11499655700004, -1.86187440499998, 23.037700000000768 ] } },
{ "type": "Feature", "properties": { "fid": 44, "NAMOBJ": "SMA Harapan", "LUAS": 0.0, "KATPDK": 0, "JLPDDK": 0, "FGGPDK": 2, "REMARK": "Pendidikan Menengah Umum", "FCODE": null, "SRS_ID": null, "LCODE": "GE0020", "METADATA": null, "JJGPDF": 2, "JNSPDL": 0 }, "geometry": { "type": "Point", "coordinates": [ 106.117752759000041, -1.870330180999929, 30.037700000000768 ] } },
{ "type": "Feature", "properties": { "fid": 45, "NAMOBJ": "SDN 13 Sungailiat", "LUAS": 0.0, "KATPDK": 0, "JLPDDK": 0, "FGGPDK": 4, "REMARK": "Pendidikan Dasar", "FCODE": null, "SRS_ID": null, "LCODE": "GE0020", "METADATA": null, "JJGPDF": 1, "JNSPDL": 0 }, "geometry": { "type": "Point", "coordinates": [ 106.12363305000008, -1.871864132999974, 28.0 ] } },
{ "type": "Feature", "properties": { "fid": 46, "NAMOBJ": "SDN 32 Sungailiat", "LUAS": 0.0, "KATPDK": 0, "JLPDDK": 0, "FGGPDK": 4, "REMARK": "Pendidikan Dasar", "FCODE": null, "SRS_ID": null, "LCODE": "GE0020", "METADATA": null, "JJGPDF": 1, "JNSPDL": 0 }, "geometry": { "type": "Point", "coordinates": [ 106.123931402000039, -1.860367149999945, 19.037700000000768 ] } },
{ "type": "Feature", "properties": { "fid": 47, "NAMOBJ": "SMP Maria Gareti", "LUAS": 0.0, "KATPDK": 0, "JLPDDK": 0, "FGGPDK": 3, "REMARK": "Pendidikan Menengah Pertama", "FCODE": null, "SRS_ID": null, "LCODE": "GE0020", "METADATA": null, "JJGPDF": 2, "JNSPDL": 0 }, "geometry": { "type": "Point", "coordinates": [ 106.12016415100004, -1.859483102999945, 24.688699999998789 ] } },
{ "type": "Feature", "properties": { "fid": 48, "NAMOBJ": "SD Maria Gareti", "LUAS": 0.0, "KATPDK": 0, "JLPDDK": 0, "FGGPDK": 4, "REMARK": "Pendidikan Dasar", "FCODE": null, "SRS_ID": null, "LCODE": "GE0020", "METADATA": null, "JJGPDF": 1, "JNSPDL": 0 }, "geometry": { "type": "Point", "coordinates": [ 106.12123379600007, -1.859274372999948, 22.037700000000768 ] } },
{ "type": "Feature", "properties": { "fid": 49, "NAMOBJ": "SD Setia Budi", "LUAS": 0.0, "KATPDK": 0, "JLPDDK": 0, "FGGPDK": 4, "REMARK": "Pendidikan Dasar", "FCODE": null, "SRS_ID": null, "LCODE": "GE0020", "METADATA": null, "JJGPDF": 1, "JNSPDL": 0 }, "geometry": { "type": "Point", "coordinates": [ 106.11798695400006, -1.856807026999945, 21.037700000000768 ] } },
{ "type": "Feature", "properties": { "fid": 50, "NAMOBJ": "SDN 1 Sungailiat", "LUAS": 0.0, "KATPDK": 0, "JLPDDK": 0, "FGGPDK": 4, "REMARK": "Pendidikan Dasar", "FCODE": null, "SRS_ID": null, "LCODE": "GE0020", "METADATA": null, "JJGPDF": 1, "JNSPDL": 0 }, "geometry": { "type": "Point", "coordinates": [ 106.118714956000076, -1.856544243999963, 19.037700000000768 ] } },
{ "type": "Feature", "properties": { "fid": 51, "NAMOBJ": "Madrasah Ibtidaiyah Negeri", "LUAS": 0.0, "KATPDK": 0, "JLPDDK": 0, "FGGPDK": 3, "REMARK": "Pendidikan Menengah Pertama", "FCODE": null, "SRS_ID": null, "LCODE": "GE0020", "METADATA": null, "JJGPDF": 2, "JNSPDL": 0 }, "geometry": { "type": "Point", "coordinates": [ 106.119254378000051, -1.856607218999955, 20.037700000000768 ] } },
{ "type": "Feature", "properties": { "fid": 52, "NAMOBJ": "SDN 6 Sungailiat", "LUAS": 0.0, "KATPDK": 0, "JLPDDK": 0, "FGGPDK": 4, "REMARK": "Pendidikan Dasar", "FCODE": null, "SRS_ID": null, "LCODE": "GE0020", "METADATA": null, "JJGPDF": 1, "JNSPDL": 0 }, "geometry": { "type": "Point", "coordinates": [ 106.124291824000068, -1.84744094399997, 24.0 ] } },
{ "type": "Feature", "properties": { "fid": 53, "NAMOBJ": "SDN 9 Sungailiat", "LUAS": 0.0, "KATPDK": 0, "JLPDDK": 0, "FGGPDK": 4, "REMARK": "Pendidikan Dasar", "FCODE": null, "SRS_ID": null, "LCODE": "GE0020", "METADATA": null, "JJGPDF": 1, "JNSPDL": 0 }, "geometry": { "type": "Point", "coordinates": [ 106.120831234000036, -1.848121553999931, 26.0 ] } },
{ "type": "Feature", "properties": { "fid": 54, "NAMOBJ": "Politeknik Manufaktur Negeri", "LUAS": 0.0, "KATPDK": 0, "JLPDDK": 0, "FGGPDK": 1, "REMARK": "Pendidikan Tinggi", "FCODE": null, "SRS_ID": null, "LCODE": "GE0020", "METADATA": null, "JJGPDF": 3, "JNSPDL": 0 }, "geometry": { "type": "Point", "coordinates": [ 106.130722485000035, -1.852285198999937, 21.0 ] } }
]
}
