{
"type": "FeatureCollection",
"name": "umkm",
"crs": { "type": "name", "properties": { "name": "urn:ogc:def:crs:OGC:1.3:CRS84" } },
"features": [
{ "type": "Feature", "properties": { "No.": 1, "Nib": 1298000210718, "Nama Perusahaan": "DAUD GORETY", "Tanggal Terbit Oss": "01/02/2021", "nama_proyek": "D'Kozi Kafe", "Uraian Skala Usaha": "Usaha Mikro", "Alamat Usaha": " Jalan Jenderal Sudirman No. 548 ", "Kab Kota Usaha": "Kab. Bangka", "kecamatan_usaha": "Sungailiat", "kelurahan_usaha": "Sri Menanti", "Kbli": 56101, "Judul Kbli": "Restoran", "Jumlah Investasi": 200000000, "TKI": 5, "longitude": 106.11578426698895, "latitude": -1.8725041308966603 }, "geometry": { "type": "Point", "coordinates": [ 106.115784266988953, -1.87250413089666 ] } },
{ "type": "Feature", "properties": { "No.": 2, "Nib": 1309210020792, "Nama Perusahaan": "TJHIN YUN SU", "Tanggal Terbit Oss": "13/09/2021", "nama_proyek": "WARKOP & RESTO YUN SU", "Uraian Skala Usaha": "Usaha Mikro", "Alamat Usaha": " Jalan Ahmad Yani", "Kab Kota Usaha": "Kab. Bangka", "kecamatan_usaha": "Sungailiat", "kelurahan_usaha": "Sri Menanti", "Kbli": 56102, "Judul Kbli": "Rumah/Warung Makan", "Jumlah Investasi": 30000000, "TKI": 3, "longitude": 105.93652078561858, "latitude": -1.9250896 }, "geometry": { "type": "Point", "coordinates": [ 105.936520785618583, -1.9250896 ] } },
{ "type": "Feature", "properties": { "No.": 3, "Nib": 1310220153735, "Nama Perusahaan": "FII AMANILLAH SUNGAILIAT", "Tanggal Terbit Oss": "13/10/2022", "nama_proyek": "SAUNG CENDIKIA", "Uraian Skala Usaha": "Usaha Mikro", "Alamat Usaha": "GANG MENUMBING", "Kab Kota Usaha": "Kab. Bangka", "kecamatan_usaha": "Sungailiat", "kelurahan_usaha": "Parit Padang", "Kbli": 85132, "Judul Kbli": "Pendidikan Taman Kanak-kanak Swasta/Raudatul Athfal/Bustanul Athfal", "Jumlah Investasi": 10000000, "TKI": 2, "longitude": 106.111595, "latitude": -1.899092 }, "geometry": { "type": "Point", "coordinates": [ 106.111595, -1.899092 ] } },
{ "type": "Feature", "properties": { "No.": 4, "Nib": 9120206972436, "Nama Perusahaan": "PAUW'S", "Tanggal Terbit Oss": "23/09/2019", "nama_proyek": "pauws kopitiam", "Uraian Skala Usaha": "Usaha Mikro", "Alamat Usaha": "Jl. Martadinata No.8 Lingk. Parit Pekir ", "Kab Kota Usaha": "Kab. Bangka", "kecamatan_usaha": "Sungailiat", "kelurahan_usaha": "Sungailiat", "Kbli": 56101, "Judul Kbli": "Restoran", "Jumlah Investasi": 100000000, "TKI": 30, "longitude": 106.1183174168053, "latitude": -1.8668822900252544 }, "geometry": { "type": "Point", "coordinates": [ 106.118317416805297, -1.866882290025254 ] } },
{ "type": "Feature", "properties": { "No.": 5, "Nib": 1011220020147, "Nama Perusahaan": "YUSPENDI", "Tanggal Terbit Oss": "10/11/2022", "nama_proyek": "MARTABAK MANIS HOKLOPAN BANGKA BANG YUS", "Uraian Skala Usaha": "Usaha Mikro", "Alamat Usaha": "Jalan Sri Pemandang ", "Kab Kota Usaha": "Kab. Bangka", "kecamatan_usaha": "Sungailiat", "kelurahan_usaha": "Sungailiat", "Kbli": 10792, "Judul Kbli": "Industri Kue Basah", "Jumlah Investasi": 10000000, "TKI": 2, "longitude": 105.9301305, "latitude": -1.9237641 }, "geometry": { "type": "Point", "coordinates": [ 105.9301305, -1.9237641 ] } },
{ "type": "Feature", "properties": { "No.": 6, "Nib": 901230016921, "Nama Perusahaan": "SARI HARTATI", "Tanggal Terbit Oss": "09/01/2023", "nama_proyek": "Quekie Bakery & Food", "Uraian Skala Usaha": "Usaha Kecil", "Alamat Usaha": "Jalan Kartini Gang Arjuna No. 10  ", "Kab Kota Usaha": "Kab. Bangka", "kecamatan_usaha": "Sungailiat", "kelurahan_usaha": "Sri Menanti", "Kbli": 10710, "Judul Kbli": "Industri Produk Roti Dan Kue", "Jumlah Investasi": 75000000, "TKI": 2, "longitude": 106.11226336092528, "latitude": -1.8615170668523879 }, "geometry": { "type": "Point", "coordinates": [ 106.112263360925283, -1.861517066852388 ] } },
{ "type": "Feature", "properties": { "No.": 7, "Nib": 1287000310425, "Nama Perusahaan": "BINAR ANUGRAH SENTOSA", "Tanggal Terbit Oss": "02/03/2021", "nama_proyek": "Kedai Makanan", "Uraian Skala Usaha": "Usaha Kecil", "Alamat Usaha": "Jl.Ahmad Yani ", "Kab Kota Usaha": "Kab. Bangka", "kecamatan_usaha": "Sungailiat", "kelurahan_usaha": "Parit Padang", "Kbli": 56103, "Judul Kbli": "Kedai Makanan", "Jumlah Investasi": 22200000, "TKI": 1, "longitude": 105.93652078561858, "latitude": -1.9250896 }, "geometry": { "type": "Point", "coordinates": [ 105.936520785618583, -1.9250896 ] } },
{ "type": "Feature", "properties": { "No.": 8, "Nib": 1287000310425, "Nama Perusahaan": "BINAR ANUGRAH SENTOSA", "Tanggal Terbit Oss": "02/03/2021", "nama_proyek": "Rumah/Warung Makan", "Uraian Skala Usaha": "Usaha Kecil", "Alamat Usaha": "Jl. Ahmad Yani", "Kab Kota Usaha": "Kab. Bangka", "kecamatan_usaha": "Sungailiat", "kelurahan_usaha": "Parit Padang", "Kbli": 56102, "Judul Kbli": "Rumah/Warung Makan", "Jumlah Investasi": 22200000, "TKI": 1, "longitude": 105.93652078561858, "latitude": -1.9250896 }, "geometry": { "type": "Point", "coordinates": [ 105.936520785618583, -1.9250896 ] } },
{ "type": "Feature", "properties": { "No.": 9, "Nib": 220300210857, "Nama Perusahaan": "AKHMAD NURKHOZIN", "Tanggal Terbit Oss": "05/02/2020", "nama_proyek": "WARUNG MAKAN MAS HILAL LAMONGAN", "Uraian Skala Usaha": "Usaha Mikro", "Alamat Usaha": "Jl. Depati Amir Kp. Rambutan", "Kab Kota Usaha": "Kab. Bangka", "kecamatan_usaha": "Sungailiat", "kelurahan_usaha": "Sungailiat", "Kbli": 56102, "Judul Kbli": "Rumah/Warung Makan", "Jumlah Investasi": 100000000, "TKI": 4, "longitude": 105.93652078561858, "latitude": -1.9250896 }, "geometry": { "type": "Point", "coordinates": [ 105.936520785618583, -1.9250896 ] } },
{ "type": "Feature", "properties": { "No.": 10, "Nib": 1101230030421, "Nama Perusahaan": "RINA HIDAYATI", "Tanggal Terbit Oss": "11/01/2023", "nama_proyek": "HOT CHILI BANGKA", "Uraian Skala Usaha": "Usaha Mikro", "Alamat Usaha": "JL. A. YANI GG. MERAK I", "Kab Kota Usaha": "Kab. Bangka", "kecamatan_usaha": "Sungailiat", "kelurahan_usaha": "Sri Menanti", "Kbli": 10750, "Judul Kbli": "Industri Makanan dan Masakan Olahan", "Jumlah Investasi": 15000000, "TKI": 2, "longitude": 106.1191993, "latitude": -1.8477275 }, "geometry": { "type": "Point", "coordinates": [ 106.1191993, -1.8477275 ] } },
{ "type": "Feature", "properties": { "No.": 11, "Nib": 1301230000857, "Nama Perusahaan": "EVA APRITA", "Tanggal Terbit Oss": "13/01/2023", "nama_proyek": "Keripik Sucita", "Uraian Skala Usaha": "Usaha Mikro", "Alamat Usaha": "Lingkungan Sinar Baru", "Kab Kota Usaha": "Kab. Bangka", "kecamatan_usaha": "Sungailiat", "kelurahan_usaha": "Sinar Baru", "Kbli": 10794, "Judul Kbli": "Industri Kerupuk, Keripik, Peyek Dan Sejenisnya", "Jumlah Investasi": 5000000, "TKI": 1, "longitude": 106.0691311062845, "latitude": -1.8227048990621708 }, "geometry": { "type": "Point", "coordinates": [ 106.069131106284502, -1.822704899062171 ] } },
{ "type": "Feature", "properties": { "No.": 12, "Nib": 1301230005605, "Nama Perusahaan": "RUDI IRAWAN", "Tanggal Terbit Oss": "13/01/2023", "nama_proyek": "Restoran", "Uraian Skala Usaha": "Usaha Mikro", "Alamat Usaha": "Jl. Jend. Sudirman", "Kab Kota Usaha": "Kab. Bangka", "kecamatan_usaha": "Sungailiat", "kelurahan_usaha": "Sungailiat", "Kbli": 56101, "Judul Kbli": "Restoran", "Jumlah Investasi": 500000000, "TKI": 2, "longitude": 105.93652078561858, "latitude": -1.9250896 }, "geometry": { "type": "Point", "coordinates": [ 105.936520785618583, -1.9250896 ] } },
{ "type": "Feature", "properties": { "No.": 13, "Nib": 2403220050792, "Nama Perusahaan": "SONYA ERINAWARTI", "Tanggal Terbit Oss": "24/03/2022", "nama_proyek": "Cokelat karakter", "Uraian Skala Usaha": "Usaha Mikro", "Alamat Usaha": " Jalan Jenderal Ahmad Yani No. 55", "Kab Kota Usaha": "Kab. Bangka", "kecamatan_usaha": "Sungailiat", "kelurahan_usaha": "Parit Padang", "Kbli": 10732, "Judul Kbli": "Industri Makanan Dari Cokelat Dan Kembang Gula dari Coklat", "Jumlah Investasi": 5000000, "TKI": 1, "longitude": 106.1038870388014, "latitude": -1.8889848435379679 }, "geometry": { "type": "Point", "coordinates": [ 106.103887038801403, -1.888984843537968 ] } },
{ "type": "Feature", "properties": { "No.": 14, "Nib": 1301230025385, "Nama Perusahaan": "ABDUL AZIZ SUNARDY", "Tanggal Terbit Oss": "13/01/2023", "nama_proyek": "DHIRA BREAD AND COOKIES", "Uraian Skala Usaha": "Usaha Mikro", "Alamat Usaha": "JL. Pemuda No.05", "Kab Kota Usaha": "Kab. Bangka", "kecamatan_usaha": "Sungailiat", "kelurahan_usaha": "Parit Padang", "Kbli": 10710, "Judul Kbli": "Industri Produk Roti Dan Kue", "Jumlah Investasi": 20000000, "TKI": 1, "longitude": 105.93652078561858, "latitude": -1.9250896 }, "geometry": { "type": "Point", "coordinates": [ 105.936520785618583, -1.9250896 ] } },
{ "type": "Feature", "properties": { "No.": 15, "Nib": 1301230040944, "Nama Perusahaan": "IRZA ADE SEPTIAN", "Tanggal Terbit Oss": "13/01/2023", "nama_proyek": "BW SNACK", "Uraian Skala Usaha": "Usaha Mikro", "Alamat Usaha": null, "Kab Kota Usaha": "Kab. Bangka", "kecamatan_usaha": "Sungailiat", "kelurahan_usaha": "Sri Menanti", "Kbli": 10794, "Judul Kbli": "Industri Kerupuk, Keripik, Peyek Dan Sejenisnya", "Jumlah Investasi": 10000000, "TKI": 2, "longitude": 106.11359526430992, "latitude": -1.8594299817272224 }, "geometry": { "type": "Point", "coordinates": [ 106.113595264309922, -1.859429981727222 ] } },
{ "type": "Feature", "properties": { "No.": 16, "Nib": 9120200772191, "Nama Perusahaan": "R.A BUDHI", "Tanggal Terbit Oss": "29/07/2019", "nama_proyek": "BUDHI SOYA FOODS", "Uraian Skala Usaha": "Usaha Mikro", "Alamat Usaha": "Jl. Sri Menanti I", "Kab Kota Usaha": "Kab. Bangka", "kecamatan_usaha": "Sungailiat", "kelurahan_usaha": "Sri Menanti", "Kbli": 10393, "Judul Kbli": "Industri Pengolahan dan Pengawetan Kedelai dan Kacang-kacangan Lainnya Selain Tahu dan Tempe", "Jumlah Investasi": 50000000, "TKI": 1, "longitude": 105.93652078561858, "latitude": -1.9250896 }, "geometry": { "type": "Point", "coordinates": [ 105.936520785618583, -1.9250896 ] } },
{ "type": "Feature", "properties": { "No.": 17, "Nib": 1701230053954, "Nama Perusahaan": "YENNI WORANG", "Tanggal Terbit Oss": "17/01/2023", "nama_proyek": "WARUNG MAKAN", "Uraian Skala Usaha": "Usaha Mikro", "Alamat Usaha": "JL. RAWA BANGUN", "Kab Kota Usaha": "Kab. Bangka", "kecamatan_usaha": "Sungailiat", "kelurahan_usaha": "Sungailiat", "Kbli": 56102, "Judul Kbli": "Rumah/Warung Makan", "Jumlah Investasi": 50000000, "TKI": 1, "longitude": 106.1217952, "latitude": -1.8511767 }, "geometry": { "type": "Point", "coordinates": [ 106.1217952, -1.8511767 ] } },
{ "type": "Feature", "properties": { "No.": 18, "Nib": 1701230075159, "Nama Perusahaan": "AI LIE", "Tanggal Terbit Oss": "17/01/2023", "nama_proyek": "KERUPUK AI LIE", "Uraian Skala Usaha": "Usaha Mikro", "Alamat Usaha": "LINGK BUKIT INTAN RT 7", "Kab Kota Usaha": "Kab. Bangka", "kecamatan_usaha": "Sungailiat", "kelurahan_usaha": "Lubuk Kelik", "Kbli": 10794, "Judul Kbli": "Industri Kerupuk, Keripik, Peyek Dan Sejenisnya", "Jumlah Investasi": 10000000, "TKI": 1, "longitude": 106.08522903723232, "latitude": -1.9094186202690504 }, "geometry": { "type": "Point", "coordinates": [ 106.085229037232324, -1.90941862026905 ] } },
{ "type": "Feature", "properties": { "No.": 19, "Nib": 1601230035391, "Nama Perusahaan": "ADE STEPVAN", "Tanggal Terbit Oss": "16/01/2023", "nama_proyek": "\" MIWMIU ICE CREAM \"", "Uraian Skala Usaha": "Usaha Mikro", "Alamat Usaha": " Jalan muhidin", "Kab Kota Usaha": "Kab. Bangka", "kecamatan_usaha": "Sungailiat", "kelurahan_usaha": "Kudai", "Kbli": 10531, "Judul Kbli": "Industri Pengolahan Es Krim", "Jumlah Investasi": 100000000, "TKI": 5, "longitude": 106.11538099948, "latitude": -1.8495367958365008 }, "geometry": { "type": "Point", "coordinates": [ 106.115380999479996, -1.849536795836501 ] } },
{ "type": "Feature", "properties": { "No.": 20, "Nib": 1901230064782, "Nama Perusahaan": "GALUH NUGRAHA", "Tanggal Terbit Oss": "19/01/2023", "nama_proyek": "Sugi Seafood ", "Uraian Skala Usaha": "Usaha Mikro", "Alamat Usaha": "Jl Pemuda Parit Padang", "Kab Kota Usaha": "Kab. Bangka", "kecamatan_usaha": "Sungailiat", "kelurahan_usaha": "Parit Padang", "Kbli": 47249, "Judul Kbli": "Perdagangan Eceran Makanan Lainnya", "Jumlah Investasi": 20000000, "TKI": 1, "longitude": 106.10485475840289, "latitude": -1.8727353639815003 }, "geometry": { "type": "Point", "coordinates": [ 106.104854758402894, -1.8727353639815 ] } },
{ "type": "Feature", "properties": { "No.": 21, "Nib": 1249001610892, "Nama Perusahaan": "NASRUL", "Tanggal Terbit Oss": "09/06/2021", "nama_proyek": "Rumah Makan Pondok Saiyo", "Uraian Skala Usaha": "Usaha Mikro", "Alamat Usaha": "Jl. Raya Kenanga Parit 7", "Kab Kota Usaha": "Kab. Bangka", "kecamatan_usaha": "Sungailiat", "kelurahan_usaha": "Kenanga", "Kbli": 56102, "Judul Kbli": "Rumah/Warung Makan", "Jumlah Investasi": 50000000, "TKI": 10, "longitude": 105.93652078561858, "latitude": -1.9250896 }, "geometry": { "type": "Point", "coordinates": [ 105.936520785618583, -1.9250896 ] } },
{ "type": "Feature", "properties": { "No.": 22, "Nib": 2001230070616, "Nama Perusahaan": "SELLY MARYANI", "Tanggal Terbit Oss": "20/01/2023", "nama_proyek": "Brownies Adelia", "Uraian Skala Usaha": "Usaha Mikro", "Alamat Usaha": "Jl. Jendral A. Yani No. 55, Lingkungan Cendrawasih", "Kab Kota Usaha": "Kab. Bangka", "kecamatan_usaha": "Sungailiat", "kelurahan_usaha": "Sri Menanti", "Kbli": 10710, "Judul Kbli": "Industri Produk Roti Dan Kue", "Jumlah Investasi": 15000000, "TKI": 1, "longitude": 106.10675323489076, "latitude": -1.8530985946716687 }, "geometry": { "type": "Point", "coordinates": [ 106.10675323489076, -1.853098594671669 ] } },
{ "type": "Feature", "properties": { "No.": 23, "Nib": 2501230043149, "Nama Perusahaan": "SUTARTI", "Tanggal Terbit Oss": "25/01/2023", "nama_proyek": "dagang sate", "Uraian Skala Usaha": "Usaha Mikro", "Alamat Usaha": "srimenanti", "Kab Kota Usaha": "Kab. Bangka", "kecamatan_usaha": "Sungailiat", "kelurahan_usaha": "Sri Menanti", "Kbli": 56102, "Judul Kbli": "Rumah/Warung Makan", "Jumlah Investasi": 15000000, "TKI": 1, "longitude": 106.10494102735764, "latitude": -1.8575275004909848 }, "geometry": { "type": "Point", "coordinates": [ 106.10494102735764, -1.857527500490985 ] } },
{ "type": "Feature", "properties": { "No.": 24, "Nib": 2501230055911, "Nama Perusahaan": "BUDI SANTOSO", "Tanggal Terbit Oss": "25/01/2023", "nama_proyek": "LAMONGAN SINAR BAHARI", "Uraian Skala Usaha": "Usaha Mikro", "Alamat Usaha": "Jalan Cokroaminoto di Samping Masjid Ar-Ridho", "Kab Kota Usaha": "Kab. Bangka", "kecamatan_usaha": "Sungailiat", "kelurahan_usaha": "Sungailiat", "Kbli": 56102, "Judul Kbli": "Rumah/Warung Makan", "Jumlah Investasi": 40000000, "TKI": 2, "longitude": 105.93652078561858, "latitude": -1.9250896 }, "geometry": { "type": "Point", "coordinates": [ 105.936520785618583, -1.9250896 ] } },
{ "type": "Feature", "properties": { "No.": 25, "Nib": 2501230078492, "Nama Perusahaan": "WIYANTO", "Tanggal Terbit Oss": "25/01/2023", "nama_proyek": "Keripi Pisang dan Ubi", "Uraian Skala Usaha": "Usaha Mikro", "Alamat Usaha": "Jl.Bukit Ubi", "Kab Kota Usaha": "Kab. Bangka", "kecamatan_usaha": "Sungailiat", "kelurahan_usaha": "Kenanga", "Kbli": 10794, "Judul Kbli": "Industri Kerupuk, Keripik, Peyek Dan Sejenisnya", "Jumlah Investasi": 10000000, "TKI": 4, "longitude": 106.13203263163405, "latitude": -1.9072788231064104 }, "geometry": { "type": "Point", "coordinates": [ 106.132032631634047, -1.90727882310641 ] } },
{ "type": "Feature", "properties": { "No.": 26, "Nib": 2601230029092, "Nama Perusahaan": "HAZIZAH", "Tanggal Terbit Oss": "26/01/2023", "nama_proyek": "\"Warung Makan Bu Hazizah \"", "Uraian Skala Usaha": "Usaha Mikro", "Alamat Usaha": "jl. rambutan", "Kab Kota Usaha": "Kab. Bangka", "kecamatan_usaha": "Sungailiat", "kelurahan_usaha": "Sungailiat", "Kbli": 56102, "Judul Kbli": "Rumah/Warung Makan", "Jumlah Investasi": 10000000, "TKI": 1, "longitude": 106.10015526556251, "latitude": -2.43051555 }, "geometry": { "type": "Point", "coordinates": [ 106.100155265562506, -2.43051555 ] } },
{ "type": "Feature", "properties": { "No.": 27, "Nib": 110220026154, "Nama Perusahaan": "ERNENY", "Tanggal Terbit Oss": "01/10/2022", "nama_proyek": "calo dan rusip", "Uraian Skala Usaha": "Usaha Mikro", "Alamat Usaha": "Lingkungan sinar baru", "Kab Kota Usaha": "Kab. Bangka", "kecamatan_usaha": "Sungailiat", "kelurahan_usaha": "Sinar Baru", "Kbli": 10215, "Judul Kbli": "Industri Peragian/Fermentasi Ikan", "Jumlah Investasi": 1000000, "TKI": 1, "longitude": 106.0932729, "latitude": -1.8235218 }, "geometry": { "type": "Point", "coordinates": [ 106.0932729, -1.8235218 ] } },
{ "type": "Feature", "properties": { "No.": 28, "Nib": 1225000132957, "Nama Perusahaan": "ELVI RONICA", "Tanggal Terbit Oss": "25/01/2021", "nama_proyek": "PEMPEK ONLINE 2020", "Uraian Skala Usaha": "Usaha Mikro", "Alamat Usaha": "JALAN JENDERAL SUDIRMAN NO 177 WAKOP TUNGHIN", "Kab Kota Usaha": "Kab. Bangka", "kecamatan_usaha": "Sungailiat", "kelurahan_usaha": "Parit Padang", "Kbli": 56103, "Judul Kbli": "Kedai Makanan", "Jumlah Investasi": 25000000, "TKI": 2, "longitude": 106.11167876839616, "latitude": -1.9009781467970399 }, "geometry": { "type": "Point", "coordinates": [ 106.11167876839616, -1.90097814679704 ] } },
{ "type": "Feature", "properties": { "No.": 29, "Nib": 1225000132957, "Nama Perusahaan": "ELVI RONICA", "Tanggal Terbit Oss": "25/01/2021", "nama_proyek": "WARKOP TUNGHIN", "Uraian Skala Usaha": "Usaha Mikro", "Alamat Usaha": "JALAN JENDERAL SUDIRMAN NO 177 WARKOP TUNGHIN", "Kab Kota Usaha": "Kab. Bangka", "kecamatan_usaha": "Sungailiat", "kelurahan_usaha": "Parit Padang", "Kbli": 56304, "Judul Kbli": "Kedai Minuman", "Jumlah Investasi": 25000000, "TKI": 1, "longitude": 106.1166912, "latitude": -1.8984754 }, "geometry": { "type": "Point", "coordinates": [ 106.1166912, -1.8984754 ] } },
{ "type": "Feature", "properties": { "No.": 30, "Nib": 2701230062415, "Nama Perusahaan": "ERKANITA", "Tanggal Terbit Oss": "27/01/2023", "nama_proyek": "Kedai Shellyn", "Uraian Skala Usaha": "Usaha Mikro", "Alamat Usaha": "Jl. Batin Tika, Sri Pemandang", "Kab Kota Usaha": "Kab. Bangka", "kecamatan_usaha": "Sungailiat", "kelurahan_usaha": "Sri Menanti", "Kbli": 56103, "Judul Kbli": "Kedai Makanan", "Jumlah Investasi": 3000000, "TKI": 1, "longitude": 106.10480972361022, "latitude": -1.8576166257444149 }, "geometry": { "type": "Point", "coordinates": [ 106.104809723610217, -1.857616625744415 ] } },
{ "type": "Feature", "properties": { "No.": 31, "Nib": 2901230010487, "Nama Perusahaan": "YENTI", "Tanggal Terbit Oss": "29/01/2023", "nama_proyek": "Rumah makan", "Uraian Skala Usaha": "Usaha Mikro", "Alamat Usaha": "Jl.sripemandang tengah", "Kab Kota Usaha": "Kab. Bangka", "kecamatan_usaha": "Sungailiat", "kelurahan_usaha": "Sri Menanti", "Kbli": 10779, "Judul Kbli": "Industri Produk Masak  Lainnya", "Jumlah Investasi": 150000000, "TKI": 4, "longitude": 106.10911515803984, "latitude": -1.8604017513358544 }, "geometry": { "type": "Point", "coordinates": [ 106.109115158039842, -1.860401751335854 ] } },
{ "type": "Feature", "properties": { "No.": 32, "Nib": 206220026928, "Nama Perusahaan": "NURLI TAMPUBOLON", "Tanggal Terbit Oss": "02/06/2022", "nama_proyek": "Pertenakan Bebek Paking", "Uraian Skala Usaha": "Usaha Mikro", "Alamat Usaha": "Cendrawasi 1 sungailiat", "Kab Kota Usaha": "Kab. Bangka", "kecamatan_usaha": "Sungailiat", "kelurahan_usaha": "Sungailiat", "Kbli": 1469, "Judul Kbli": "Pembibitan Dan Budidaya Ternak Unggas Lainnya", "Jumlah Investasi": 50000000, "TKI": 1, "longitude": 105.93652078561858, "latitude": -1.9250896 }, "geometry": { "type": "Point", "coordinates": [ 105.936520785618583, -1.9250896 ] } },
{ "type": "Feature", "properties": { "No.": 33, "Nib": 3101230036848, "Nama Perusahaan": "RISKA", "Tanggal Terbit Oss": "31/01/2023", "nama_proyek": "SOUFLE PANCAKE BOO", "Uraian Skala Usaha": "Usaha Mikro", "Alamat Usaha": "Jalan Jendral Sudirman ", "Kab Kota Usaha": "Kab. Bangka", "kecamatan_usaha": "Sungailiat", "kelurahan_usaha": "Sungailiat", "Kbli": 56103, "Judul Kbli": "Kedai Makanan", "Jumlah Investasi": 11000000, "TKI": 2, "longitude": 105.93652078561858, "latitude": -1.9250896 }, "geometry": { "type": "Point", "coordinates": [ 105.936520785618583, -1.9250896 ] } },
{ "type": "Feature", "properties": { "No.": 34, "Nib": 3101230038615, "Nama Perusahaan": "EVA NORA", "Tanggal Terbit Oss": "31/01/2023", "nama_proyek": "ALPOKAT KOCOK RAYA", "Uraian Skala Usaha": "Usaha Mikro", "Alamat Usaha": "Jl. Pemuda", "Kab Kota Usaha": "Kab. Bangka", "kecamatan_usaha": "Sungailiat", "kelurahan_usaha": "Parit Padang", "Kbli": 56103, "Judul Kbli": "Kedai Makanan", "Jumlah Investasi": 2800000, "TKI": 1, "longitude": 105.93652078561858, "latitude": -1.9250896 }, "geometry": { "type": "Point", "coordinates": [ 105.936520785618583, -1.9250896 ] } },
{ "type": "Feature", "properties": { "No.": 35, "Nib": 102230004411, "Nama Perusahaan": "GLICIRIA SUSIYANTI", "Tanggal Terbit Oss": "01/02/2023", "nama_proyek": "Dapur Rasiney", "Uraian Skala Usaha": "Usaha Mikro", "Alamat Usaha": "Jalan Kartini 1 No.16", "Kab Kota Usaha": "Kab. Bangka", "kecamatan_usaha": "Sungailiat", "kelurahan_usaha": "Sri Menanti", "Kbli": 10792, "Judul Kbli": "Industri Kue Basah", "Jumlah Investasi": 2500000, "TKI": 1, "longitude": 106.1025511, "latitude": -1.8545866 }, "geometry": { "type": "Point", "coordinates": [ 106.1025511, -1.8545866 ] } },
{ "type": "Feature", "properties": { "No.": 36, "Nib": 102230004411, "Nama Perusahaan": "GLICIRIA SUSIYANTI", "Tanggal Terbit Oss": "01/02/2023", "nama_proyek": "Kue Kering", "Uraian Skala Usaha": "Usaha Mikro", "Alamat Usaha": "Jl.Kartini 1 No.16", "Kab Kota Usaha": "Kab. Bangka", "kecamatan_usaha": "Sungailiat", "kelurahan_usaha": "Sri Menanti", "Kbli": 10710, "Judul Kbli": "Industri Produk Roti Dan Kue", "Jumlah Investasi": 2500000, "TKI": 1, "longitude": 106.10360694075176, "latitude": -1.857535190475071 }, "geometry": { "type": "Point", "coordinates": [ 106.10360694075176, -1.857535190475071 ] } },
{ "type": "Feature", "properties": { "No.": 37, "Nib": 102230004411, "Nama Perusahaan": "GLICIRIA SUSIYANTI", "Tanggal Terbit Oss": "01/02/2023", "nama_proyek": "Pizza", "Uraian Skala Usaha": "Usaha Mikro", "Alamat Usaha": "Jl.Kartini 1 No.16", "Kab Kota Usaha": "Kab. Bangka", "kecamatan_usaha": "Sungailiat", "kelurahan_usaha": "Sri Menanti", "Kbli": 10799, "Judul Kbli": "Industri Produk Makanan Lainnya", "Jumlah Investasi": 2500000, "TKI": 1, "longitude": 106.10294656056132, "latitude": -1.856604912367765 }, "geometry": { "type": "Point", "coordinates": [ 106.102946560561321, -1.856604912367765 ] } },
{ "type": "Feature", "properties": { "No.": 38, "Nib": 102230024854, "Nama Perusahaan": "ANITA ARISTA", "Tanggal Terbit Oss": "01/02/2023", "nama_proyek": "Industri Kue Basah", "Uraian Skala Usaha": "Usaha Mikro", "Alamat Usaha": "Jl. Hos Cokroaminoto ", "Kab Kota Usaha": "Kab. Bangka", "kecamatan_usaha": "Sungailiat", "kelurahan_usaha": "Sungailiat", "Kbli": 10792, "Judul Kbli": "Industri Kue Basah", "Jumlah Investasi": 5000000, "TKI": 1, "longitude": 105.93652078561858, "latitude": -1.9250896 }, "geometry": { "type": "Point", "coordinates": [ 105.936520785618583, -1.9250896 ] } },
{ "type": "Feature", "properties": { "No.": 39, "Nib": 102230048895, "Nama Perusahaan": "WAHYONO", "Tanggal Terbit Oss": "01/02/2023", "nama_proyek": "warung nasi uduk\"sekawan\"", "Uraian Skala Usaha": "Usaha Mikro", "Alamat Usaha": "JL. PAHLAWAN 12 LINGK. S. PARMAN", "Kab Kota Usaha": "Kab. Bangka", "kecamatan_usaha": "Sungailiat", "kelurahan_usaha": "Sungailiat", "Kbli": 56102, "Judul Kbli": "Rumah/Warung Makan", "Jumlah Investasi": 30000000, "TKI": 3, "longitude": 106.1195385, "latitude": -1.855129 }, "geometry": { "type": "Point", "coordinates": [ 106.1195385, -1.855129 ] } },
{ "type": "Feature", "properties": { "No.": 40, "Nib": 102230052394, "Nama Perusahaan": "PUTRINING KURNIAWATI", "Tanggal Terbit Oss": "01/02/2023", "nama_proyek": "Pawon Snack", "Uraian Skala Usaha": "Usaha Mikro", "Alamat Usaha": "jl kartini no 57", "Kab Kota Usaha": "Kab. Bangka", "kecamatan_usaha": "Sungailiat", "kelurahan_usaha": "Sri Menanti", "Kbli": 47249, "Judul Kbli": "Perdagangan Eceran Makanan Lainnya", "Jumlah Investasi": 3000000, "TKI": 2, "longitude": 106.11148954016797, "latitude": -1.8648035882332219 }, "geometry": { "type": "Point", "coordinates": [ 106.111489540167966, -1.864803588233222 ] } },
{ "type": "Feature", "properties": { "No.": 41, "Nib": 202230024877, "Nama Perusahaan": "RUSLI", "Tanggal Terbit Oss": "02/02/2023", "nama_proyek": "CAKE DAN COOKIES", "Uraian Skala Usaha": "Usaha Mikro", "Alamat Usaha": "Lingk. Matras ", "Kab Kota Usaha": "Kab. Bangka", "kecamatan_usaha": "Sungailiat", "kelurahan_usaha": "Matras", "Kbli": 10710, "Judul Kbli": "Industri Produk Roti Dan Kue", "Jumlah Investasi": 1000000, "TKI": 4, "longitude": 105.93652078561858, "latitude": -1.9250896 }, "geometry": { "type": "Point", "coordinates": [ 105.936520785618583, -1.9250896 ] } },
{ "type": "Feature", "properties": { "No.": 42, "Nib": 302230044327, "Nama Perusahaan": "MEIGASARI", "Tanggal Terbit Oss": "03/02/2023", "nama_proyek": "SUI HUA CAKERY", "Uraian Skala Usaha": "Usaha Mikro", "Alamat Usaha": "Jl. Yos Sudarso Parit Pekir", "Kab Kota Usaha": "Kab. Bangka", "kecamatan_usaha": "Sungailiat", "kelurahan_usaha": "Sungailiat", "Kbli": 10710, "Judul Kbli": "Industri Produk Roti Dan Kue", "Jumlah Investasi": 5000000, "TKI": 1, "longitude": 105.93652078561858, "latitude": -1.9250896 }, "geometry": { "type": "Point", "coordinates": [ 105.936520785618583, -1.9250896 ] } },
{ "type": "Feature", "properties": { "No.": 43, "Nib": 220003200733, "Nama Perusahaan": "SUSILAWATI", "Tanggal Terbit Oss": "03/02/2020", "nama_proyek": "KUE ELLA", "Uraian Skala Usaha": "Usaha Mikro", "Alamat Usaha": "Jl. Sripemandang No.27", "Kab Kota Usaha": "Kab. Bangka", "kecamatan_usaha": "Sungailiat", "kelurahan_usaha": "Sungailiat", "Kbli": 10792, "Judul Kbli": "Industri Kue Basah", "Jumlah Investasi": 10000000, "TKI": 3, "longitude": 105.93652078561858, "latitude": -1.9250896 }, "geometry": { "type": "Point", "coordinates": [ 105.936520785618583, -1.9250896 ] } },
{ "type": "Feature", "properties": { "No.": 44, "Nib": 602230018482, "Nama Perusahaan": "ABIL GUSTAP PRATAMA", "Tanggal Terbit Oss": "06/02/2023", "nama_proyek": "kedai makan naura", "Uraian Skala Usaha": "Usaha Mikro", "Alamat Usaha": "jalan tanjung pesona", "Kab Kota Usaha": "Kab. Bangka", "kecamatan_usaha": "Sungailiat", "kelurahan_usaha": "Jelitik", "Kbli": 56103, "Judul Kbli": "Kedai Makanan", "Jumlah Investasi": 10000000, "TKI": 1, "longitude": 106.10617139094219, "latitude": -1.8558293205042189 }, "geometry": { "type": "Point", "coordinates": [ 106.106171390942194, -1.855829320504219 ] } },
{ "type": "Feature", "properties": { "No.": 45, "Nib": 302230054387, "Nama Perusahaan": "NURI HERMASARI", "Tanggal Terbit Oss": "03/02/2023", "nama_proyek": "jualan jajanan makan online\"dapur mama rafa\" ", "Uraian Skala Usaha": "Usaha Mikro", "Alamat Usaha": "PERUMAHAN TAMAN PESONA BLOK U NO 24", "Kab Kota Usaha": "Kab. Bangka", "kecamatan_usaha": "Sungailiat", "kelurahan_usaha": "Bukit Betung", "Kbli": 47914, "Judul Kbli": "Perdagangan Eceran Melalui Media Untuk Barang Campuran Sebagaimana Tersebut Dalam 47911 S.D. 47913", "Jumlah Investasi": 7000000, "TKI": 1, "longitude": 106.1067104893219, "latitude": -1.8891000187379805 }, "geometry": { "type": "Point", "coordinates": [ 106.106710489321898, -1.889100018737981 ] } },
{ "type": "Feature", "properties": { "No.": 46, "Nib": 302230054387, "Nama Perusahaan": "NURI HERMASARI", "Tanggal Terbit Oss": "03/02/2023", "nama_proyek": "kue basah", "Uraian Skala Usaha": "Usaha Mikro", "Alamat Usaha": "perumahan taman pesona blok U no 24", "Kab Kota Usaha": "Kab. Bangka", "kecamatan_usaha": "Sungailiat", "kelurahan_usaha": "Bukit Betung", "Kbli": 10792, "Judul Kbli": "Industri Kue Basah", "Jumlah Investasi": 3000000, "TKI": 1, "longitude": 106.10541776482118, "latitude": -1.89073503906806 }, "geometry": { "type": "Point", "coordinates": [ 106.105417764821183, -1.89073503906806 ] } },
{ "type": "Feature", "properties": { "No.": 47, "Nib": 1295000531273, "Nama Perusahaan": "RAFI", "Tanggal Terbit Oss": "17/05/2021", "nama_proyek": "STIK IKAN MAK RAFI", "Uraian Skala Usaha": "Usaha Mikro", "Alamat Usaha": "Jl. SriPemandang No.30/A", "Kab Kota Usaha": "Kab. Bangka", "kecamatan_usaha": "Sungailiat", "kelurahan_usaha": "Sri Menanti", "Kbli": 10794, "Judul Kbli": "Industri Kerupuk, Keripik, Peyek Dan Sejenisnya", "Jumlah Investasi": 20000000, "TKI": 2, "longitude": 105.93652078561858, "latitude": -1.9250896 }, "geometry": { "type": "Point", "coordinates": [ 105.936520785618583, -1.9250896 ] } },
{ "type": "Feature", "properties": { "No.": 48, "Nib": 220104102683, "Nama Perusahaan": "KURNIATI", "Tanggal Terbit Oss": "28/01/2020", "nama_proyek": "KEMPLANG IKAN NIA", "Uraian Skala Usaha": "Usaha Mikro", "Alamat Usaha": "Jl. Jend. Sudirman ", "Kab Kota Usaha": "Kab. Bangka", "kecamatan_usaha": "Sungailiat", "kelurahan_usaha": "Parit Padang", "Kbli": 10794, "Judul Kbli": "Industri Kerupuk, Keripik, Peyek Dan Sejenisnya", "Jumlah Investasi": 15000000, "TKI": 2, "longitude": 105.93652078561858, "latitude": -1.9250896 }, "geometry": { "type": "Point", "coordinates": [ 105.936520785618583, -1.9250896 ] } },
{ "type": "Feature", "properties": { "No.": 49, "Nib": 802230068322, "Nama Perusahaan": "IRWAN RAHMADI", "Tanggal Terbit Oss": "08/02/2023", "nama_proyek": "warung makan irwan", "Uraian Skala Usaha": "Usaha Mikro", "Alamat Usaha": "JALAN SISINGAMANGARAJA", "Kab Kota Usaha": "Kab. Bangka", "kecamatan_usaha": "Sungailiat", "kelurahan_usaha": "Kudai", "Kbli": 56102, "Judul Kbli": "Rumah/Warung Makan", "Jumlah Investasi": 15000000, "TKI": 1, "longitude": 106.0657561, "latitude": -1.8489602 }, "geometry": { "type": "Point", "coordinates": [ 106.0657561, -1.8489602 ] } },
{ "type": "Feature", "properties": { "No.": 50, "Nib": 802230075318, "Nama Perusahaan": "ANNA YUSLIKHATUN NI'MAH", "Tanggal Terbit Oss": "08/02/2023", "nama_proyek": "ANNA SNACK", "Uraian Skala Usaha": "Usaha Mikro", "Alamat Usaha": " Jalan batin tikal", "Kab Kota Usaha": "Kab. Bangka", "kecamatan_usaha": "Sungailiat", "kelurahan_usaha": "Sungailiat", "Kbli": 47249, "Judul Kbli": "Perdagangan Eceran Makanan Lainnya", "Jumlah Investasi": 20000000, "TKI": 1, "longitude": 106.11002499698463, "latitude": -1.8535627654603868 }, "geometry": { "type": "Point", "coordinates": [ 106.110024996984635, -1.853562765460387 ] } },
{ "type": "Feature", "properties": { "No.": 51, "Nib": 1002230016065, "Nama Perusahaan": "FEBIANA", "Tanggal Terbit Oss": "10/02/2023", "nama_proyek": "Warung Bakso IBI", "Uraian Skala Usaha": "Usaha Mikro", "Alamat Usaha": "Jl. Lumba - lumba RT. 002", "Kab Kota Usaha": "Kab. Bangka", "kecamatan_usaha": "Sungailiat", "kelurahan_usaha": "Sungailiat", "Kbli": 56103, "Judul Kbli": "Kedai Makanan", "Jumlah Investasi": 2000000, "TKI": 1, "longitude": 105.93652078561858, "latitude": -1.9250896 }, "geometry": { "type": "Point", "coordinates": [ 105.936520785618583, -1.9250896 ] } },
{ "type": "Feature", "properties": { "No.": 52, "Nib": 1264001482804, "Nama Perusahaan": "KURNIATI SAPUTRI", "Tanggal Terbit Oss": "20/04/2021", "nama_proyek": "REMPEYEK KURNIATY ", "Uraian Skala Usaha": "Usaha Mikro", "Alamat Usaha": "Jalan Kartini I Gang Arjuna Nomor 4 Lingkungan Sidodadi ", "Kab Kota Usaha": "Kab. Bangka", "kecamatan_usaha": "Sungailiat", "kelurahan_usaha": "Sri Menanti", "Kbli": 10794, "Judul Kbli": "Industri Kerupuk, Keripik, Peyek Dan Sejenisnya", "Jumlah Investasi": 13000000, "TKI": 1, "longitude": 105.93652078561858, "latitude": -1.9250896 }, "geometry": { "type": "Point", "coordinates": [ 105.936520785618583, -1.9250896 ] } },
{ "type": "Feature", "properties": { "No.": 53, "Nib": 1502230011526, "Nama Perusahaan": "HAIRUN NISA", "Tanggal Terbit Oss": "15/02/2023", "nama_proyek": "WARUNG MAKNUM", "Uraian Skala Usaha": "Usaha Mikro", "Alamat Usaha": "JL. A YANI JALUR II KOMPLEK PU", "Kab Kota Usaha": "Kab. Bangka", "kecamatan_usaha": "Sungailiat", "kelurahan_usaha": "Bukit Betung", "Kbli": 56102, "Judul Kbli": "Rumah/Warung Makan", "Jumlah Investasi": 60000000, "TKI": 1, "longitude": 106.1191993, "latitude": -1.8477275 }, "geometry": { "type": "Point", "coordinates": [ 106.1191993, -1.8477275 ] } },
{ "type": "Feature", "properties": { "No.": 54, "Nib": 1502230021643, "Nama Perusahaan": "SAIDA", "Tanggal Terbit Oss": "15/02/2023", "nama_proyek": "Kedai Makanan", "Uraian Skala Usaha": "Usaha Mikro", "Alamat Usaha": "Lingk. Sinar Jaya", "Kab Kota Usaha": "Kab. Bangka", "kecamatan_usaha": "Sungailiat", "kelurahan_usaha": "Sinar Jaya Jelutung", "Kbli": 56103, "Judul Kbli": "Kedai Makanan", "Jumlah Investasi": 3000000, "TKI": 1, "longitude": 105.93652078561858, "latitude": -1.9250896 }, "geometry": { "type": "Point", "coordinates": [ 105.936520785618583, -1.9250896 ] } },
{ "type": "Feature", "properties": { "No.": 55, "Nib": 1244000502566, "Nama Perusahaan": "SUHAIDI MADA", "Tanggal Terbit Oss": "26/05/2021", "nama_proyek": "AYAM GEPREK UPIN IPIN", "Uraian Skala Usaha": "Usaha Mikro", "Alamat Usaha": "Jalan Batin Tikal Nomor 176 Sri Pemandang", "Kab Kota Usaha": "Kab. Bangka", "kecamatan_usaha": "Sungailiat", "kelurahan_usaha": "Sri Menanti", "Kbli": 56102, "Judul Kbli": "Rumah/Warung Makan", "Jumlah Investasi": 10000000, "TKI": 2, "longitude": 105.93652078561858, "latitude": -1.9250896 }, "geometry": { "type": "Point", "coordinates": [ 105.936520785618583, -1.9250896 ] } },
{ "type": "Feature", "properties": { "No.": 56, "Nib": 1602230077571, "Nama Perusahaan": "HERMILA HARZALIA", "Tanggal Terbit Oss": "16/02/2023", "nama_proyek": "Dapur Shanum", "Uraian Skala Usaha": "Usaha Mikro", "Alamat Usaha": "JL. BATIN TIKAL SRI PEMANDANG", "Kab Kota Usaha": "Kab. Bangka", "kecamatan_usaha": "Sungailiat", "kelurahan_usaha": "Sri Menanti", "Kbli": 56102, "Judul Kbli": "Rumah/Warung Makan", "Jumlah Investasi": 10000000, "TKI": 6, "longitude": 105.93652078561858, "latitude": -1.9250896 }, "geometry": { "type": "Point", "coordinates": [ 105.936520785618583, -1.9250896 ] } },
{ "type": "Feature", "properties": { "No.": 57, "Nib": 1702230026066, "Nama Perusahaan": "HARTATI DWI LESTARI SAFITRI", "Tanggal Terbit Oss": "17/02/2023", "nama_proyek": "IKAN ASIN", "Uraian Skala Usaha": "Usaha Mikro", "Alamat Usaha": "DUSUN REBO", "Kab Kota Usaha": "Kab. Bangka", "kecamatan_usaha": "Sungailiat", "kelurahan_usaha": "Rebo", "Kbli": 10211, "Judul Kbli": "Industri Penggaraman/Pengeringan Ikan", "Jumlah Investasi": 5000000, "TKI": 1, "longitude": 106.1557938, "latitude": -1.9173491 }, "geometry": { "type": "Point", "coordinates": [ 106.1557938, -1.9173491 ] } },
{ "type": "Feature", "properties": { "No.": 58, "Nib": 2002230054083, "Nama Perusahaan": "REGA SETIANANDA", "Tanggal Terbit Oss": "20/02/2023", "nama_proyek": "WARKOP OiYo", "Uraian Skala Usaha": "Usaha Mikro", "Alamat Usaha": " WARKOP OiYo Jalan Jenderal Ahmad Yani No. 55a", "Kab Kota Usaha": "Kab. Bangka", "kecamatan_usaha": "Sungailiat", "kelurahan_usaha": "Sri Menanti", "Kbli": 56304, "Judul Kbli": "Kedai Minuman", "Jumlah Investasi": 20000000, "TKI": 1, "longitude": 106.1039199524449, "latitude": -1.8814158 }, "geometry": { "type": "Point", "coordinates": [ 106.103919952444897, -1.8814158 ] } },
{ "type": "Feature", "properties": { "No.": 59, "Nib": 603230094581, "Nama Perusahaan": "ZENY PRASETIYA", "Tanggal Terbit Oss": "06/03/2023", "nama_proyek": "Barokah Bubur Kacang", "Uraian Skala Usaha": "Usaha Mikro", "Alamat Usaha": "JLN. A YANI GG. MURIA.", "Kab Kota Usaha": "Kab. Bangka", "kecamatan_usaha": "Sungailiat", "kelurahan_usaha": "Bukit Betung", "Kbli": 10793, "Judul Kbli": "Industri Makanan Dari Kedele Dan Kacang-kacangan Lainnya Bukan Kecap, Tempe Dan Tahu", "Jumlah Investasi": 2000000, "TKI": 1, "longitude": 106.12014767016802, "latitude": -1.851114611899872 }, "geometry": { "type": "Point", "coordinates": [ 106.120147670168024, -1.851114611899872 ] } },
{ "type": "Feature", "properties": { "No.": 60, "Nib": 2002230109609, "Nama Perusahaan": "SAIDIN", "Tanggal Terbit Oss": "20/02/2023", "nama_proyek": "WARUNG BAKSO SAIDIN", "Uraian Skala Usaha": "Usaha Mikro", "Alamat Usaha": "LINGKUNGAN SINAR BARU RT 4", "Kab Kota Usaha": "Kab. Bangka", "kecamatan_usaha": "Sungailiat", "kelurahan_usaha": "Sinar Baru", "Kbli": 56102, "Judul Kbli": "Rumah/Warung Makan", "Jumlah Investasi": 10000000, "TKI": 1, "longitude": 106.09403162689, "latitude": -1.8180654567927248 }, "geometry": { "type": "Point", "coordinates": [ 106.094031626890001, -1.818065456792725 ] } },
{ "type": "Feature", "properties": { "No.": 61, "Nib": 2002230110072, "Nama Perusahaan": "SUMINAH", "Tanggal Terbit Oss": "20/02/2023", "nama_proyek": "KEDAI MINUMAN SUMINAH", "Uraian Skala Usaha": "Usaha Mikro", "Alamat Usaha": "JALAN PRAMUKA", "Kab Kota Usaha": "Kab. Bangka", "kecamatan_usaha": "Sungailiat", "kelurahan_usaha": "Surya Timur", "Kbli": 56304, "Judul Kbli": "Kedai Minuman", "Jumlah Investasi": 10000000, "TKI": 1, "longitude": 106.11719658354571, "latitude": -1.9050112978423079 }, "geometry": { "type": "Point", "coordinates": [ 106.117196583545706, -1.905011297842308 ] } },
{ "type": "Feature", "properties": { "No.": 62, "Nib": 2202230006304, "Nama Perusahaan": "MARINA", "Tanggal Terbit Oss": "22/02/2023", "nama_proyek": "MARINA CAKE & COOKIES", "Uraian Skala Usaha": "Usaha Mikro", "Alamat Usaha": "LINK MATRAS", "Kab Kota Usaha": "Kab. Bangka", "kecamatan_usaha": "Sungailiat", "kelurahan_usaha": "Matras", "Kbli": 10792, "Judul Kbli": "Industri Kue Basah", "Jumlah Investasi": 5000000, "TKI": 1, "longitude": 106.11358536189746, "latitude": -1.8237156557838288 }, "geometry": { "type": "Point", "coordinates": [ 106.113585361897464, -1.823715655783829 ] } },
{ "type": "Feature", "properties": { "No.": 63, "Nib": 2202230006304, "Nama Perusahaan": "MARINA", "Tanggal Terbit Oss": "22/02/2023", "nama_proyek": "marina cake aaa7 cookies", "Uraian Skala Usaha": "Usaha Mikro", "Alamat Usaha": "LINGK MATRAS", "Kab Kota Usaha": "Kab. Bangka", "kecamatan_usaha": "Sungailiat", "kelurahan_usaha": "Matras", "Kbli": 10710, "Judul Kbli": "Industri Produk Roti Dan Kue", "Jumlah Investasi": 3000000, "TKI": 1, "longitude": 106.1078681, "latitude": -1.8235486 }, "geometry": { "type": "Point", "coordinates": [ 106.1078681, -1.8235486 ] } },
{ "type": "Feature", "properties": { "No.": 64, "Nib": 2302230015285, "Nama Perusahaan": "IIN ROHAENI", "Tanggal Terbit Oss": "23/02/2023", "nama_proyek": "bolu pisang", "Uraian Skala Usaha": "Usaha Mikro", "Alamat Usaha": "Jl. Imam Bonjol Gg. Muria No 16 Kompleks Pemda", "Kab Kota Usaha": "Kab. Bangka", "kecamatan_usaha": "Sungailiat", "kelurahan_usaha": "Bukit Betung", "Kbli": 10710, "Judul Kbli": "Industri Produk Roti Dan Kue", "Jumlah Investasi": 5000000, "TKI": 1, "longitude": 106.11985779372544, "latitude": -1.8612342227776089 }, "geometry": { "type": "Point", "coordinates": [ 106.119857793725444, -1.861234222777609 ] } },
{ "type": "Feature", "properties": { "No.": 65, "Nib": 2302230015757, "Nama Perusahaan": "NADIRA RIZKY ", "Tanggal Terbit Oss": "23/02/2023", "nama_proyek": "Nadira Collection ", "Uraian Skala Usaha": "Usaha Mikro", "Alamat Usaha": "Ruko Panti Gembira, Pasar Atas ", "Kab Kota Usaha": "Kab. Bangka", "kecamatan_usaha": "Sungailiat", "kelurahan_usaha": "Sungailiat", "Kbli": 47714, "Judul Kbli": "Perdagangan Eceran Tas, Dompet, Koper, Ransel Dan Sejenisnya", "Jumlah Investasi": 60000000, "TKI": 2, "longitude": 106.1191993, "latitude": -1.8477275 }, "geometry": { "type": "Point", "coordinates": [ 106.1191993, -1.8477275 ] } },
{ "type": "Feature", "properties": { "No.": 66, "Nib": 2302230018356, "Nama Perusahaan": "VERDENURUL KAMILIA", "Tanggal Terbit Oss": "23/02/2023", "nama_proyek": "LADA NYONYA", "Uraian Skala Usaha": "Usaha Mikro", "Alamat Usaha": "JL. JEND SUDIRMAN GG. MENANTI NO 244", "Kab Kota Usaha": "Kab. Bangka", "kecamatan_usaha": "Sungailiat", "kelurahan_usaha": "Parit Padang", "Kbli": 47219, "Judul Kbli": "Perdagangan Eceran Hasil Pertanian Lainnya", "Jumlah Investasi": 25000000, "TKI": 1, "longitude": 106.103822, "latitude": -1.9009136 }, "geometry": { "type": "Point", "coordinates": [ 106.103822, -1.9009136 ] } },
{ "type": "Feature", "properties": { "No.": 67, "Nib": 2302230018233, "Nama Perusahaan": "MELITHA RUKMANA SARI", "Tanggal Terbit Oss": "23/02/2023", "nama_proyek": "zafa's kitchen", "Uraian Skala Usaha": "Usaha Mikro", "Alamat Usaha": "Jl. Sisingamangaraja Perum. Bumi Arwana Permai Blok K97", "Kab Kota Usaha": "Kab. Bangka", "kecamatan_usaha": "Sungailiat", "kelurahan_usaha": "Kudai", "Kbli": 10710, "Judul Kbli": "Industri Produk Roti Dan Kue", "Jumlah Investasi": 5000000, "TKI": 1, "longitude": 106.0880347, "latitude": -1.8440845 }, "geometry": { "type": "Point", "coordinates": [ 106.0880347, -1.8440845 ] } },
{ "type": "Feature", "properties": { "No.": 68, "Nib": 2302230025488, "Nama Perusahaan": "ERNI", "Tanggal Terbit Oss": "23/02/2023", "nama_proyek": "DAPOER ERNI ACIT", "Uraian Skala Usaha": "Usaha Mikro", "Alamat Usaha": "JL. DEPATI BARIN NO 19", "Kab Kota Usaha": "Kab. Bangka", "kecamatan_usaha": "Sungailiat", "kelurahan_usaha": "Sri Menanti", "Kbli": 10710, "Judul Kbli": "Industri Produk Roti Dan Kue", "Jumlah Investasi": 5000000, "TKI": 1, "longitude": 106.103999, "latitude": -1.8549062 }, "geometry": { "type": "Point", "coordinates": [ 106.103999, -1.8549062 ] } },
{ "type": "Feature", "properties": { "No.": 69, "Nib": 2302230025488, "Nama Perusahaan": "ERNI", "Tanggal Terbit Oss": "23/02/2023", "nama_proyek": "KUE ERNI ACIT", "Uraian Skala Usaha": "Usaha Mikro", "Alamat Usaha": "JL. DEPATI BARIN NO 19", "Kab Kota Usaha": "Kab. Bangka", "kecamatan_usaha": "Sungailiat", "kelurahan_usaha": "Sri Menanti", "Kbli": 10792, "Judul Kbli": "Industri Kue Basah", "Jumlah Investasi": 3000000, "TKI": 1, "longitude": 106.103999, "latitude": -1.8549062 }, "geometry": { "type": "Point", "coordinates": [ 106.103999, -1.8549062 ] } },
{ "type": "Feature", "properties": { "No.": 70, "Nib": 2402230064819, "Nama Perusahaan": "WATI", "Tanggal Terbit Oss": "24/02/2023", "nama_proyek": "kemplang dan kerupuk abong", "Uraian Skala Usaha": "Usaha Mikro", "Alamat Usaha": "dusun rebo", "Kab Kota Usaha": "Kab. Bangka", "kecamatan_usaha": "Sungailiat", "kelurahan_usaha": "Rebo", "Kbli": 10794, "Judul Kbli": "Industri Kerupuk, Keripik, Peyek Dan Sejenisnya", "Jumlah Investasi": 50000000, "TKI": 6, "longitude": 106.15595701752665, "latitude": -1.91681977427968 }, "geometry": { "type": "Point", "coordinates": [ 106.155957017526646, -1.91681977427968 ] } },
{ "type": "Feature", "properties": { "No.": 72, "Nib": 2502230026166, "Nama Perusahaan": "LINA", "Tanggal Terbit Oss": "25/02/2023", "nama_proyek": "Lina Cake", "Uraian Skala Usaha": "Usaha Mikro", "Alamat Usaha": "Lingkungan Sinar Baru", "Kab Kota Usaha": "Kab. Bangka", "kecamatan_usaha": "Sungailiat", "kelurahan_usaha": "Sinar Baru", "Kbli": 10710, "Judul Kbli": "Industri Produk Roti Dan Kue", "Jumlah Investasi": 5000000, "TKI": 1, "longitude": 106.1189494, "latitude": -1.8490645 }, "geometry": { "type": "Point", "coordinates": [ 106.1189494, -1.8490645 ] } },
{ "type": "Feature", "properties": { "No.": 73, "Nib": 2408220050119, "Nama Perusahaan": "ROSMAWATI", "Tanggal Terbit Oss": "24/08/2022", "nama_proyek": "aneka macam kue dan kukis", "Uraian Skala Usaha": "Usaha Mikro", "Alamat Usaha": "Jl. Belinyu Lingkungan Sinar Baru ", "Kab Kota Usaha": "Kab. Bangka", "kecamatan_usaha": "Sungailiat", "kelurahan_usaha": "Sinar Baru", "Kbli": 10710, "Judul Kbli": "Industri Produk Roti Dan Kue", "Jumlah Investasi": 5000000, "TKI": 1, "longitude": 106.11125777473416, "latitude": -1.8429527888448329 }, "geometry": { "type": "Point", "coordinates": [ 106.111257774734156, -1.842952788844833 ] } },
{ "type": "Feature", "properties": { "No.": 74, "Nib": 2702230064317, "Nama Perusahaan": "M.AMIR", "Tanggal Terbit Oss": "27/02/2023", "nama_proyek": "JUAL BELI IKAN", "Uraian Skala Usaha": "Usaha Mikro", "Alamat Usaha": "TPI PELELANGAN PELABUHAN", "Kab Kota Usaha": "Kab. Bangka", "kecamatan_usaha": "Sungailiat", "kelurahan_usaha": "Sungailiat", "Kbli": 47215, "Judul Kbli": "Perdagangan Eceran Hasil Perikanan", "Jumlah Investasi": 5000000, "TKI": 1, "longitude": 105.93652078561858, "latitude": -1.9250896 }, "geometry": { "type": "Point", "coordinates": [ 105.936520785618583, -1.9250896 ] } },
{ "type": "Feature", "properties": { "No.": 75, "Nib": 2702230068933, "Nama Perusahaan": "SYEH TAUFIK UMAR", "Tanggal Terbit Oss": "27/02/2023", "nama_proyek": "WARUNG BANG TAUFIK", "Uraian Skala Usaha": "Usaha Mikro", "Alamat Usaha": "JL. JENDRAL SUDIRMAN", "Kab Kota Usaha": "Kab. Bangka", "kecamatan_usaha": "Sungailiat", "kelurahan_usaha": "Sungailiat", "Kbli": 56102, "Judul Kbli": "Rumah/Warung Makan", "Jumlah Investasi": 3500000, "TKI": 2, "longitude": 105.93652078561858, "latitude": -1.9250896 }, "geometry": { "type": "Point", "coordinates": [ 105.936520785618583, -1.9250896 ] } },
{ "type": "Feature", "properties": { "No.": 76, "Nib": 232000921578, "Nama Perusahaan": "FENI KLARA", "Tanggal Terbit Oss": "17/09/2020", "nama_proyek": "PEMBUATAN KUE NASTAR", "Uraian Skala Usaha": "Usaha Mikro", "Alamat Usaha": "Jl. Pahlawan 12 No.01", "Kab Kota Usaha": "Kab. Bangka", "kecamatan_usaha": "Sungailiat", "kelurahan_usaha": "Sungailiat", "Kbli": 10710, "Judul Kbli": "Industri Produk Roti Dan Kue", "Jumlah Investasi": 15000000, "TKI": 1, "longitude": 105.93652078561858, "latitude": -1.9250896 }, "geometry": { "type": "Point", "coordinates": [ 105.936520785618583, -1.9250896 ] } },
{ "type": "Feature", "properties": { "No.": 77, "Nib": 203230031514, "Nama Perusahaan": "SITI PATIMAH", "Tanggal Terbit Oss": "02/03/2023", "nama_proyek": "PENTOL 3 BERSAUDARA", "Uraian Skala Usaha": "Usaha Mikro", "Alamat Usaha": "JL. BATIN TIKAL GG. CHAIRULSYAH NO. 190", "Kab Kota Usaha": "Kab. Bangka", "kecamatan_usaha": "Sungailiat", "kelurahan_usaha": "Sri Menanti", "Kbli": 56104, "Judul Kbli": "Penyediaan Makanan Keliling/Tempat Tidak Tetap", "Jumlah Investasi": 5000000, "TKI": 1, "longitude": 105.93652078561858, "latitude": -1.9250896 }, "geometry": { "type": "Point", "coordinates": [ 105.936520785618583, -1.9250896 ] } },
{ "type": "Feature", "properties": { "No.": 78, "Nib": 203230032394, "Nama Perusahaan": "ANGGIE AMALA", "Tanggal Terbit Oss": "02/03/2023", "nama_proyek": "Baso Aci Rara", "Uraian Skala Usaha": "Usaha Mikro", "Alamat Usaha": "jl.zochri lingk.rambak", "Kab Kota Usaha": "Kab. Bangka", "kecamatan_usaha": "Sungailiat", "kelurahan_usaha": "Jelitik", "Kbli": 56103, "Judul Kbli": "Kedai Makanan", "Jumlah Investasi": 4000000, "TKI": 1, "longitude": 105.93652078561858, "latitude": -1.9250896 }, "geometry": { "type": "Point", "coordinates": [ 105.936520785618583, -1.9250896 ] } },
{ "type": "Feature", "properties": { "No.": 79, "Nib": 203230032394, "Nama Perusahaan": "ANGGIE AMALA", "Tanggal Terbit Oss": "02/03/2023", "nama_proyek": "Thai tea boba", "Uraian Skala Usaha": "Usaha Mikro", "Alamat Usaha": "Jln. Zochi Rambak", "Kab Kota Usaha": "Kab. Bangka", "kecamatan_usaha": "Sungailiat", "kelurahan_usaha": "Jelitik", "Kbli": 56304, "Judul Kbli": "Kedai Minuman", "Jumlah Investasi": 4000000, "TKI": 1, "longitude": 105.93652078561858, "latitude": -1.9250896 }, "geometry": { "type": "Point", "coordinates": [ 105.936520785618583, -1.9250896 ] } },
{ "type": "Feature", "properties": { "No.": 80, "Nib": 203230044103, "Nama Perusahaan": "JAMALIA", "Tanggal Terbit Oss": "02/03/2023", "nama_proyek": "BAKWAN PEMPEK AMEL", "Uraian Skala Usaha": "Usaha Mikro", "Alamat Usaha": "JL. HOS COKROAMINOTO", "Kab Kota Usaha": "Kab. Bangka", "kecamatan_usaha": "Sungailiat", "kelurahan_usaha": "Sungailiat", "Kbli": 56104, "Judul Kbli": "Penyediaan Makanan Keliling/Tempat Tidak Tetap", "Jumlah Investasi": 10000000, "TKI": 1, "longitude": 105.93652078561858, "latitude": -1.9250896 }, "geometry": { "type": "Point", "coordinates": [ 105.936520785618583, -1.9250896 ] } },
{ "type": "Feature", "properties": { "No.": 81, "Nib": 203230049325, "Nama Perusahaan": "AYU VERONIKA", "Tanggal Terbit Oss": "02/03/2023", "nama_proyek": "KEDAI RIFKI", "Uraian Skala Usaha": "Usaha Mikro", "Alamat Usaha": "JL. KENANGA", "Kab Kota Usaha": "Kab. Bangka", "kecamatan_usaha": "Sungailiat", "kelurahan_usaha": "Kenanga", "Kbli": 56304, "Judul Kbli": "Kedai Minuman", "Jumlah Investasi": 5000000, "TKI": 1, "longitude": 105.93652078561858, "latitude": -1.9250896 }, "geometry": { "type": "Point", "coordinates": [ 105.936520785618583, -1.9250896 ] } },
{ "type": "Feature", "properties": { "No.": 82, "Nib": 901230016921, "Nama Perusahaan": "SARI HARTATI", "Tanggal Terbit Oss": "09/01/2023", "nama_proyek": "Kedai Makanan", "Uraian Skala Usaha": "Usaha Kecil", "Alamat Usaha": "Jalan Kartini Gang Arjuna NO 10", "Kab Kota Usaha": "Kab. Bangka", "kecamatan_usaha": "Sungailiat", "kelurahan_usaha": "Sri Menanti", "Kbli": 56103, "Judul Kbli": "Kedai Makanan", "Jumlah Investasi": 15000000, "TKI": 1, "longitude": 106.10574829256969, "latitude": -1.855120941170096 }, "geometry": { "type": "Point", "coordinates": [ 106.105748292569686, -1.855120941170096 ] } },
{ "type": "Feature", "properties": { "No.": 83, "Nib": 603230011189, "Nama Perusahaan": "INDAH SULISTIYAWATI", "Tanggal Terbit Oss": "06/03/2023", "nama_proyek": "Bless Semprong", "Uraian Skala Usaha": "Usaha Mikro", "Alamat Usaha": "Jl. S. Parman", "Kab Kota Usaha": "Kab. Bangka", "kecamatan_usaha": "Sungailiat", "kelurahan_usaha": "Sungailiat", "Kbli": 10710, "Judul Kbli": "Industri Produk Roti Dan Kue", "Jumlah Investasi": 5000000, "TKI": 2, "longitude": 106.1191993, "latitude": -1.8477275 }, "geometry": { "type": "Point", "coordinates": [ 106.1191993, -1.8477275 ] } },
{ "type": "Feature", "properties": { "No.": 84, "Nib": 603230018821, "Nama Perusahaan": "JOHAN EPENDI", "Tanggal Terbit Oss": "06/03/2023", "nama_proyek": "BAKSO & MIE AYAM  TIGA PUTRI", "Uraian Skala Usaha": "Usaha Mikro", "Alamat Usaha": "JL. RAYA BELINYU, LINGKUNGAN JELUTUNG", "Kab Kota Usaha": "Kab. Bangka", "kecamatan_usaha": "Sungailiat", "kelurahan_usaha": "Sinar Jaya Jelutung", "Kbli": 56103, "Judul Kbli": "Kedai Makanan", "Jumlah Investasi": 5000000, "TKI": 1, "longitude": 105.93652078561858, "latitude": -1.9250896 }, "geometry": { "type": "Point", "coordinates": [ 105.936520785618583, -1.9250896 ] } },
{ "type": "Feature", "properties": { "No.": 85, "Nib": 603230041148, "Nama Perusahaan": "ANSYORI", "Tanggal Terbit Oss": "06/03/2023", "nama_proyek": "catering Griya", "Uraian Skala Usaha": "Usaha Mikro", "Alamat Usaha": "jln ahmad yani no, 68", "Kab Kota Usaha": "Kab. Bangka", "kecamatan_usaha": "Sungailiat", "kelurahan_usaha": "Bukit Betung", "Kbli": 56290, "Judul Kbli": "Penyediaan Jasa Boga Periode Tertentu", "Jumlah Investasi": 100000000, "TKI": 6, "longitude": 106.101532, "latitude": -1.8881674 }, "geometry": { "type": "Point", "coordinates": [ 106.101532, -1.8881674 ] } },
{ "type": "Feature", "properties": { "No.": 86, "Nib": 603230041148, "Nama Perusahaan": "ANSYORI", "Tanggal Terbit Oss": "06/03/2023", "nama_proyek": "warung griya", "Uraian Skala Usaha": "Usaha Mikro", "Alamat Usaha": "JL. AHMAD YANI NO 68", "Kab Kota Usaha": "Kab. Bangka", "kecamatan_usaha": "Sungailiat", "kelurahan_usaha": "Bukit Betung", "Kbli": 56102, "Judul Kbli": "Rumah/Warung Makan", "Jumlah Investasi": 30000000, "TKI": 6, "longitude": 105.93652078561858, "latitude": -1.9250896 }, "geometry": { "type": "Point", "coordinates": [ 105.936520785618583, -1.9250896 ] } },
{ "type": "Feature", "properties": { "No.": 87, "Nib": 603230047373, "Nama Perusahaan": "SELLA NOVA", "Tanggal Terbit Oss": "06/03/2023", "nama_proyek": "WARUNG MAKAN SEDERHANA", "Uraian Skala Usaha": "Usaha Mikro", "Alamat Usaha": " Jalan  a yani jalur II", "Kab Kota Usaha": "Kab. Bangka", "kecamatan_usaha": "Sungailiat", "kelurahan_usaha": "Bukit Betung", "Kbli": 56102, "Judul Kbli": "Rumah/Warung Makan", "Jumlah Investasi": 15000000, "TKI": 1, "longitude": 106.10488032150189, "latitude": -1.8875702 }, "geometry": { "type": "Point", "coordinates": [ 106.104880321501895, -1.8875702 ] } },
{ "type": "Feature", "properties": { "No.": 88, "Nib": 603230058419, "Nama Perusahaan": "MEILIANI", "Tanggal Terbit Oss": "06/03/2023", "nama_proyek": "KR Semprong", "Uraian Skala Usaha": "Usaha Mikro", "Alamat Usaha": "Jl. S. Parman Gg. Tenggiri", "Kab Kota Usaha": "Kab. Bangka", "kecamatan_usaha": "Sungailiat", "kelurahan_usaha": "Sungailiat", "Kbli": 10710, "Judul Kbli": "Industri Produk Roti Dan Kue", "Jumlah Investasi": 2000000, "TKI": 1, "longitude": 106.1191993, "latitude": -1.8477275 }, "geometry": { "type": "Point", "coordinates": [ 106.1191993, -1.8477275 ] } },
{ "type": "Feature", "properties": { "No.": 89, "Nib": 1403220013303, "Nama Perusahaan": "BONG KIM LIAN", "Tanggal Terbit Oss": "14/03/2022", "nama_proyek": "RM IBU SURI", "Uraian Skala Usaha": "Usaha Mikro", "Alamat Usaha": "Jalan Jenderal Sudirman no 38 ", "Kab Kota Usaha": "Kab. Bangka", "kecamatan_usaha": "Sungailiat", "kelurahan_usaha": "Sungailiat", "Kbli": 56101, "Judul Kbli": "Restoran", "Jumlah Investasi": 200000000, "TKI": 20, "longitude": 105.93652078561858, "latitude": -1.9250896 }, "geometry": { "type": "Point", "coordinates": [ 105.936520785618583, -1.9250896 ] } },
{ "type": "Feature", "properties": { "No.": 90, "Nib": 803230066027, "Nama Perusahaan": "SULSIAH", "Tanggal Terbit Oss": "08/03/2023", "nama_proyek": "JUAL ENJAN DAN JONGKONG", "Uraian Skala Usaha": "Usaha Mikro", "Alamat Usaha": "Jalan Kampung Nelayan II RT 004 RW 002", "Kab Kota Usaha": "Kab. Bangka", "kecamatan_usaha": "Sungailiat", "kelurahan_usaha": "Sungailiat", "Kbli": 56104, "Judul Kbli": "Penyediaan Makanan Keliling/Tempat Tidak Tetap", "Jumlah Investasi": 500000, "TKI": 1, "longitude": 105.93652078561858, "latitude": -1.9250896 }, "geometry": { "type": "Point", "coordinates": [ 105.936520785618583, -1.9250896 ] } },
{ "type": "Feature", "properties": { "No.": 91, "Nib": 903230012085, "Nama Perusahaan": "DAVID ARDIANTO", "Tanggal Terbit Oss": "09/03/2023", "nama_proyek": "Kedai Hana", "Uraian Skala Usaha": "Usaha Mikro", "Alamat Usaha": "Jl. Batin Tikal", "Kab Kota Usaha": "Kab. Bangka", "kecamatan_usaha": "Sungailiat", "kelurahan_usaha": "Sri Menanti", "Kbli": 56304, "Judul Kbli": "Kedai Minuman", "Jumlah Investasi": 35000000, "TKI": 1, "longitude": 106.1191993, "latitude": -1.8477275 }, "geometry": { "type": "Point", "coordinates": [ 106.1191993, -1.8477275 ] } },
{ "type": "Feature", "properties": { "No.": 92, "Nib": 903230037794, "Nama Perusahaan": "ADE DWI KURNIAWAN", "Tanggal Terbit Oss": "09/03/2023", "nama_proyek": "Alus Kue", "Uraian Skala Usaha": "Usaha Mikro", "Alamat Usaha": "Lingkungan Jelutung RT. 004", "Kab Kota Usaha": "Kab. Bangka", "kecamatan_usaha": "Sungailiat", "kelurahan_usaha": "Sinar Jaya Jelutung", "Kbli": 47242, "Judul Kbli": "Perdagangan Eceran Roti, Kue Kering, serta Kue Basah dan Sejenisnya", "Jumlah Investasi": 10000000, "TKI": 2, "longitude": 106.1191993, "latitude": -1.8477275 }, "geometry": { "type": "Point", "coordinates": [ 106.1191993, -1.8477275 ] } },
{ "type": "Feature", "properties": { "No.": 93, "Nib": 1277000101714, "Nama Perusahaan": "AGUSTINA", "Tanggal Terbit Oss": "11/01/2021", "nama_proyek": "Kue Kering", "Uraian Skala Usaha": "Usaha Mikro", "Alamat Usaha": "Lingkungan Nelayan II", "Kab Kota Usaha": "Kab. Bangka", "kecamatan_usaha": "Sungailiat", "kelurahan_usaha": "Sungailiat", "Kbli": 10710, "Judul Kbli": "Industri Produk Roti Dan Kue", "Jumlah Investasi": 2000000, "TKI": 1, "longitude": 106.11297880137252, "latitude": -1.8484528517696539 }, "geometry": { "type": "Point", "coordinates": [ 106.11297880137252, -1.848452851769654 ] } },
{ "type": "Feature", "properties": { "No.": 94, "Nib": 1403230019641, "Nama Perusahaan": "MARLINA INDAH PALUPI", "Tanggal Terbit Oss": "14/03/2023", "nama_proyek": "DENA COOKIES", "Uraian Skala Usaha": "Usaha Mikro", "Alamat Usaha": "II JL. A YANI JALUR II PUCUK MERAH II NO 18", "Kab Kota Usaha": "Kab. Bangka", "kecamatan_usaha": "Sungailiat", "kelurahan_usaha": "Bukit Betung", "Kbli": 10710, "Judul Kbli": "Industri Produk Roti Dan Kue", "Jumlah Investasi": 25000000, "TKI": 1, "longitude": 106.11302382612776, "latitude": -1.888993526947496 }, "geometry": { "type": "Point", "coordinates": [ 106.113023826127758, -1.888993526947496 ] } },
{ "type": "Feature", "properties": { "No.": 95, "Nib": 1403230019641, "Nama Perusahaan": "MARLINA INDAH PALUPI", "Tanggal Terbit Oss": "14/03/2023", "nama_proyek": "ANEKA PUDING", "Uraian Skala Usaha": "Usaha Mikro", "Alamat Usaha": "II JL. A YANI JALUR II PUCUK MERAH III NO 18", "Kab Kota Usaha": "Kab. Bangka", "kecamatan_usaha": "Sungailiat", "kelurahan_usaha": "Bukit Betung", "Kbli": 10792, "Judul Kbli": "Industri Kue Basah", "Jumlah Investasi": 7000000, "TKI": 1, "longitude": 106.0853952, "latitude": -1.9146751 }, "geometry": { "type": "Point", "coordinates": [ 106.0853952, -1.9146751 ] } },
{ "type": "Feature", "properties": { "No.": 96, "Nib": 1403230031396, "Nama Perusahaan": "EMAWATI", "Tanggal Terbit Oss": "14/03/2023", "nama_proyek": "DAPOER WO EMA", "Uraian Skala Usaha": "Usaha Mikro", "Alamat Usaha": "Jl. Raya Belinyu Kp. Jelutung", "Kab Kota Usaha": "Kab. Bangka", "kecamatan_usaha": "Sungailiat", "kelurahan_usaha": "Sinar Jaya Jelutung", "Kbli": 10750, "Judul Kbli": "Industri Makanan dan Masakan Olahan", "Jumlah Investasi": 3000000, "TKI": 1, "longitude": 106.1191993, "latitude": -1.8477275 }, "geometry": { "type": "Point", "coordinates": [ 106.1191993, -1.8477275 ] } },
{ "type": "Feature", "properties": { "No.": 97, "Nib": 1403230059432, "Nama Perusahaan": "RUSMIDA", "Tanggal Terbit Oss": "14/03/2023", "nama_proyek": "Makanan Olahan Empek-empek & Tekwan", "Uraian Skala Usaha": "Usaha Mikro", "Alamat Usaha": "Jl. Yos Sudarso", "Kab Kota Usaha": "Kab. Bangka", "kecamatan_usaha": "Sungailiat", "kelurahan_usaha": "Sungailiat", "Kbli": 10750, "Judul Kbli": "Industri Makanan dan Masakan Olahan", "Jumlah Investasi": 10000000, "TKI": 2, "longitude": 106.1191993, "latitude": -1.8477275 }, "geometry": { "type": "Point", "coordinates": [ 106.1191993, -1.8477275 ] } },
{ "type": "Feature", "properties": { "No.": 98, "Nib": 1603230058593, "Nama Perusahaan": "DESVELIANITA PRATAMI", "Tanggal Terbit Oss": "16/03/2023", "nama_proyek": "Family's Cake", "Uraian Skala Usaha": "Usaha Mikro", "Alamat Usaha": "jalan cendrawasih III No.136 RT.003", "Kab Kota Usaha": "Kab. Bangka", "kecamatan_usaha": "Sungailiat", "kelurahan_usaha": "Sri Menanti", "Kbli": 56104, "Judul Kbli": "Penyediaan Makanan Keliling/Tempat Tidak Tetap", "Jumlah Investasi": 5000000, "TKI": 3, "longitude": 106.103999, "latitude": -1.8549062 }, "geometry": { "type": "Point", "coordinates": [ 106.103999, -1.8549062 ] } },
{ "type": "Feature", "properties": { "No.": 99, "Nib": 1803230025326, "Nama Perusahaan": "ALIF JYVASKYLA FATHANAEN WAKANG", "Tanggal Terbit Oss": "18/03/2023", "nama_proyek": "Risol Teteh", "Uraian Skala Usaha": "Usaha Mikro", "Alamat Usaha": "Kelurahan Sri Menanti Jalan Merak II", "Kab Kota Usaha": "Kab. Bangka", "kecamatan_usaha": "Sungailiat", "kelurahan_usaha": "Sri Menanti", "Kbli": 10792, "Judul Kbli": "Industri Kue Basah", "Jumlah Investasi": 1500000, "TKI": 3, "longitude": 106.1098419, "latitude": -1.86639215 }, "geometry": { "type": "Point", "coordinates": [ 106.1098419, -1.86639215 ] } },
{ "type": "Feature", "properties": { "No.": 100, "Nib": 1803230029997, "Nama Perusahaan": "IWAN BUDIONO", "Tanggal Terbit Oss": "18/03/2023", "nama_proyek": "Black Forest 139", "Uraian Skala Usaha": "Usaha Mikro", "Alamat Usaha": "Jl. Muhidin No. 139", "Kab Kota Usaha": "Kab. Bangka", "kecamatan_usaha": "Sungailiat", "kelurahan_usaha": "Kudai", "Kbli": 10710, "Judul Kbli": "Industri Produk Roti Dan Kue", "Jumlah Investasi": 2000000, "TKI": 3, "longitude": 106.0821082, "latitude": -1.8472485 }, "geometry": { "type": "Point", "coordinates": [ 106.0821082, -1.8472485 ] } },
{ "type": "Feature", "properties": { "No.": 101, "Nib": 1903230034114, "Nama Perusahaan": "TOMI ZUNITA", "Tanggal Terbit Oss": "19/03/2023", "nama_proyek": "roti bollen dan black forest", "Uraian Skala Usaha": "Usaha Mikro", "Alamat Usaha": "Jl. Muhidin No 139", "Kab Kota Usaha": "Kab. Bangka", "kecamatan_usaha": "Sungailiat", "kelurahan_usaha": "Kudai", "Kbli": 10710, "Judul Kbli": "Industri Produk Roti Dan Kue", "Jumlah Investasi": 10000000, "TKI": 1, "longitude": 106.0820438, "latitude": -1.8472632 }, "geometry": { "type": "Point", "coordinates": [ 106.0820438, -1.8472632 ] } },
{ "type": "Feature", "properties": { "No.": 102, "Nib": 2003230017443, "Nama Perusahaan": "WIYONO", "Tanggal Terbit Oss": "20/03/2023", "nama_proyek": "WARUNG MAS SALI", "Uraian Skala Usaha": "Usaha Mikro", "Alamat Usaha": "Jalan Imam Bonjol ", "Kab Kota Usaha": "Kab. Bangka", "kecamatan_usaha": "Sungailiat", "kelurahan_usaha": "Bukit Betung", "Kbli": 56102, "Judul Kbli": "Rumah/Warung Makan", "Jumlah Investasi": 15000000, "TKI": 4, "longitude": 105.93652078561858, "latitude": -1.9250896 }, "geometry": { "type": "Point", "coordinates": [ 105.936520785618583, -1.9250896 ] } }
]
}
