    {
"type": "FeatureCollection",
"name": "wisata",
"crs": { "type": "name", "properties": { "name": "urn:ogc:def:crs:OGC:1.3:CRS84" } },
"features": [
{ "type": "Feature", "properties": { "fid": 1, "full_id": "n3660108440", "osm_id": "3660108440", "osm_type": "node", "artwork_type": null, "website": null, "phone": null, "internet_access": null, "contact:instagram": null, "addr:street": null, "addr:postcode": null, "addr:housenumber": null, "name:ms": null, "name:id": null, "name:en": null, "tourism": "hotel", "name": "ST12 Hotel" }, "geometry": { "type": "Point", "coordinates": [ 106.1179876, -1.8883431 ] } },
{ "type": "Feature", "properties": { "fid": 2, "full_id": "n5085294521", "osm_id": "5085294521", "osm_type": "node", "artwork_type": null, "website": null, "phone": null, "internet_access": null, "contact:instagram": null, "addr:street": null, "addr:postcode": null, "addr:housenumber": null, "name:ms": "Pantai Tongachi", "name:id": "Pantai Tongachi", "name:en": "Tongachi Beach", "tourism": "artwork", "name": "Pantai Tongachi" }, "geometry": { "type": "Point", "coordinates": [ 106.122292, -1.8332421 ] } },
{ "type": "Feature", "properties": { "fid": 3, "full_id": "n12733996101", "osm_id": "12733996101", "osm_type": "node", "artwork_type": null, "website": "https://linktr.ee/BosHotel", "phone": "+628117113475", "internet_access": "wlan", "contact:instagram": "bos_hotel", "addr:street": "Jalan Jenderal Sudirman", "addr:postcode": "33215", "addr:housenumber": "343", "name:ms": null, "name:id": null, "name:en": null, "tourism": "hotel", "name": "Bos Hotel Sungailiat" }, "geometry": { "type": "Point", "coordinates": [ 106.1109209, -1.8994916 ] } },
{ "type": "Feature", "properties": { "fid": 4, "full_id": "n13694399466", "osm_id": "13694399466", "osm_type": "node", "artwork_type": null, "website": null, "phone": null, "internet_access": null, "contact:instagram": null, "addr:street": null, "addr:postcode": null, "addr:housenumber": null, "name:ms": null, "name:id": null, "name:en": null, "tourism": "attraction", "name": "Pagoda Hill" }, "geometry": { "type": "Point", "coordinates": [ 106.1578688, -1.9095443 ] } },
{ "type": "Feature", "properties": { "fid": 5, "full_id": "n13694701368", "osm_id": "13694701368", "osm_type": "node", "artwork_type": null, "website": null, "phone": null, "internet_access": null, "contact:instagram": null, "addr:street": null, "addr:postcode": null, "addr:housenumber": null, "name:ms": null, "name:id": null, "name:en": null, "tourism": "attraction", "name": "Taman Tugu C.I.A." }, "geometry": { "type": "Point", "coordinates": [ 106.1568912, -1.9077043 ] } },
{ "type": "Feature", "properties": { "fid": 6, "full_id": "n13694701388", "osm_id": "13694701388", "osm_type": "node", "artwork_type": null, "website": null, "phone": null, "internet_access": null, "contact:instagram": null, "addr:street": null, "addr:postcode": null, "addr:housenumber": null, "name:ms": null, "name:id": null, "name:en": null, "tourism": "viewpoint", "name": "Taman Tugu C.I.A." }, "geometry": { "type": "Point", "coordinates": [ 106.1569562, -1.9076307 ] } },
{ "type": "Feature", "properties": { "fid": 7, "full_id": "n13859555819", "osm_id": "13859555819", "osm_type": "node", "artwork_type": "statue", "website": null, "phone": null, "internet_access": null, "contact:instagram": null, "addr:street": null, "addr:postcode": null, "addr:housenumber": null, "name:ms": null, "name:id": null, "name:en": null, "tourism": "artwork", "name": null }, "geometry": { "type": "Point", "coordinates": [ 106.1844008, -1.8994217 ] } }
]
}
